  18 OCT 2016,  0:03  SEQUENCE NO.    9, ID NO.         0
                                                        ADJUSTMENTS (KM)
  I ORIGIN   LAT N     LON W     Z   NWR  RMS    DT    DLAT   DLON    DZ    RR NF MOD
  1 47.42  42 46.92   13E 8.17  5.00  21 1.14  0.726 -3.463 -4.711  0.000 5.847 3 MOD
 FREE DEPTH
  2 48.15  42 45.05   13E11.63  5.00  21 0.46 -0.127 -0.340 -0.034  0.287 0.446 4 MOD
  3 48.02  42 44.87   13E11.66  5.29  21 0.44 -0.010 -0.053 -0.016 -0.012 0.057 4 MOD
 BEGIN MAIN DISTANCE WEIGHTING
 BEGIN RESIDUAL WEIGHTING
  4 48.01  42 44.84   13E11.67  5.28  20 0.26 -0.151  0.512 -0.024  0.988 1.113 4 MOD
  5 47.86  42 45.12   13E11.69  6.26  20 0.24 -0.024  0.287 -0.155 -0.375 0.497 4 MOD
  6 47.83  42 45.27   13E11.80  5.89  20 0.21  0.024  0.027 -0.228 -0.720 0.756 4 MOD
  7 47.86  42 45.29   13E11.97  5.17  19 0.20 -0.020  0.026 -0.027  0.094 0.101 4 MOD
  8 47.84  42 45.30   13E11.99  5.26  19 0.19  0.000  0.004 -0.020 -0.085 0.088 4 MOD
  9 47.84  42 45.30   13E12.00  5.18  19 0.19 -0.003  0.006 -0.005  0.034 0.035 4 MOD

              EIGENVALUES
     ( 4.399  0.737  0.616  0.180)
      EIGENVECTORS OF ADJUSTMENT                COVARIANCE             ERRORS
 OT  (-0.997 -0.006 -0.059 -0.056) (   0.007  -0.010  -0.003  -0.081)   0.086
 LAT (-0.051 -0.521  0.851  0.055) (  -0.010   0.120  -0.010   0.075)   0.346
 LON ( 0.031 -0.847 -0.522  0.090) (  -0.003  -0.010   0.110   0.125)   0.332
 Z   (-0.056  0.105 -0.003  0.993) (  -0.081   0.075   0.125   1.458)   1.207
 ERROR ELLIPSE: <SERR AZ DIP>-<   1.21 301 83>-<   0.36  31  0>-<   0.30 122  6>
 ------------------------------------------------------------------------------------
 YEAR MO DA  --ORIGIN--  --LAT N-  --LON W--  DEPTH-G RMS   ERH   ERZ  XMAG1 FMAG1 PMAG GEOID-DEP
 2016-10-18  0003 47.84  42 45.30   13E12.00   4.20  0.19  0.36  1.21                       4.20
                                                                                          SOURCE
 NSTA NPHS  DMIN MODEL GAP ITR NFM NWR NWS NVR REMRKS-AVH  N.XMG-XMMAD-T   N.FMG-FMMAD-T  L F X
   21   21   5.4  MODS 106   9   0  19  10  21                                                 

 XMAG2-N.XMG2-XMMAD-T-S  FMAG2-N.FMG2-FMMAD-T-S  PREF.MAG-N.PMAG-PRMAD-T DEPDAT NS ZT TYP
                                                                            975  5  G CRH
 REGION=                          

 STA NET COM L CR DIST AZM  AN P/S WT   SEC (TOBS -TCAL -DLY  =RES)  WT   SR  INFO  CAL  DUR-W-FMAG-T -AMP-U-PER-W-XMAG-T DE
 ED10 YR HH        5.4 297 135  P     49.42  1.58  1.40 0.00  0.18  1.06     0.164                                           
        S                       S     50.58  2.74  2.87 0.00 -0.13  1.06S    0.639                                           
 ED23 YR HH        7.3 100 125  P     49.96  2.12  1.62 0.00  0.50  0.92     0.152                                           
        S                       S     51.96  4.12  3.31 0.00  0.81* 0.00S    0.000                                           
 ED24 YR HH       11.1 184 113  P     50.10  2.26  2.15 0.00  0.11  1.06     0.089                                           
        S                       S     52.01  4.17  4.33 0.00 -0.16  1.06S    0.277                                           
 NRCA IVSHH       11.2 322 107  S  1  52.09  4.25  4.37 0.00 -0.12  0.80S    0.156                                           
 ED11 YR HH       15.5 242 104  P     50.65  2.81  2.82 0.00 -0.01  1.06     0.107                                           
        S                       S     53.34  5.50  5.60 0.00 -0.10  1.06S    0.225                                           
 ED03 YR HH       16.9 183 102  P     50.99  3.15  3.03 0.00  0.12  1.06     0.094                                           
        S                       S     53.67  5.83  6.00 0.00 -0.17  1.06S    0.213                                           
 ED19 YR HH       19.0 345 100  P     52.95  5.11  3.35 0.00  1.76* 0.00     0.000                                           
        S                       S     54.17  6.33  6.60 0.00 -0.27  1.06S    0.411                                           
 ED12 YR HH       19.1 288 100  P     51.52  3.68  3.37 0.00  0.31  1.06     0.172                                           
        S                       S  1  54.39  6.55  6.64 0.00 -0.09  0.80S    0.175                                           
 ED20 YR HH       19.3  91 100  P     51.31  3.47  3.40 0.00  0.07  1.06     0.160                                           
        S                       S     54.33  6.49  6.69 0.00 -0.20  1.06S    0.318                                           
 LNSS IV HH       21.4 218  98  P     51.70  3.86  3.73 0.00  0.13  1.06     0.129                                           
        S                       S  1  55.00  7.16  7.30 0.00 -0.14  0.80S    0.142                                           
 TERO IV HH       36.2 113  93  P  1  54.10  6.26  6.07 0.00  0.19  0.80     0.092                                           
        S                       S     59.28 11.44 11.65 0.00 -0.21  1.06S    0.273                                           
 ####################################################################################
  18 OCT 2016,  0:04  SEQUENCE NO.   10, ID NO.         0
                                                        ADJUSTMENTS (KM)
  I ORIGIN   LAT N     LON W     Z   NWR  RMS    DT    DLAT   DLON    DZ    RR NF MOD
  1  0.58  42 54.26   13E19.31  5.00  35 1.06  0.945  0.068  4.811  0.000 4.811 3 MOD
 FREE DEPTH
  2  1.53  42 54.30   13E15.77  5.00  35 0.42  0.207 -0.141 -0.160 -4.394 4.399 4 MOD
 RMS INCREASE - MOVE HYPO 0.60 BACK
  3  1.73  42 54.22   13E15.88  0.61  35 0.47 -0.124  0.085  0.096  2.636 2.640 4 MOD
 BEGIN MAIN DISTANCE WEIGHTING
 BEGIN RESIDUAL WEIGHTING
  4  1.61  42 54.27   13E15.81  3.24  34 0.31 -0.095 -0.122 -0.340 -1.280 1.330 4 MOD
  5  1.51  42 54.20   13E16.06  1.96  34 0.25 -0.006 -0.044 -0.040  0.594 0.597 4 MOD
  6  1.51  42 54.18   13E16.09  2.56  34 0.23 -0.044 -0.057  0.024  0.021 0.065 4 MOD
  7  1.46  42 54.15   13E16.07  2.58  32 0.22 -0.024 -0.078  0.085  0.104 0.155 4 MOD
  8  1.44  42 54.10   13E16.01  2.68  32 0.21 -0.015 -0.021  0.053  0.166 0.176 4 MOD
  9  1.42  42 54.09   13E15.97  2.85  32 0.21 -0.004 -0.017  0.019 -0.021 0.033 4 MOD
 10  1.42  42 54.08   13E15.96  2.83  32 0.21 -0.002  0.002  0.008  0.089 0.090 4 MOD

              EIGENVALUES
     ( 5.778  1.121  0.843  0.395)
      EIGENVECTORS OF ADJUSTMENT                COVARIANCE             ERRORS
 OT  (-1.000 -0.004 -0.009 -0.006) (   0.002   0.000  -0.001  -0.002)   0.040
 LAT ( 0.005 -0.965 -0.233  0.122) (   0.000   0.048  -0.007   0.036)   0.219
 LON (-0.008 -0.235  0.972 -0.003) (  -0.001  -0.007   0.073   0.000)   0.269
 Z   (-0.007  0.118  0.032  0.992) (  -0.002   0.036   0.000   0.333)   0.577
 ERROR ELLIPSE: <SERR AZ DIP>-<   0.58   2 82>-<   0.27 256  1>-<   0.20 166  6>
 ------------------------------------------------------------------------------------
 YEAR MO DA  --ORIGIN--  --LAT N-  --LON W--  DEPTH-G RMS   ERH   ERZ  XMAG1 FMAG1 PMAG GEOID-DEP
 2016-10-18  0004  1.42  42 54.08   13E15.96   1.99  0.21  0.27  0.58                       1.99
                                                                                          SOURCE
 NSTA NPHS  DMIN MODEL GAP ITR NFM NWR NWS NVR REMRKS-AVH  N.XMG-XMMAD-T   N.FMG-FMMAD-T  L F X
   35   35   5.0  MODS  67  10   0  32  16  35                                                 

 XMAG2-N.XMG2-XMMAD-T-S  FMAG2-N.FMG2-FMMAD-T-S  PREF.MAG-N.PMAG-PRMAD-T DEPDAT NS ZT TYP
                                                                            834  5  G CRH
 REGION=                          

 STA NET COM L CR DIST AZM  AN P/S WT   SEC (TOBS -TCAL -DLY  =RES)  WT   SR  INFO  CAL  DUR-W-FMAG-T -AMP-U-PER-W-XMAG-T DE
 MMO1 IV EH        5.0  92 121  P      2.58  1.16  1.11 0.00  0.05  1.10     0.113                                           
        S                       S      3.64  2.22  2.37 0.00 -0.15  1.10S    0.309                                           
 MC2  IV EH        6.4 281 114  P      2.89  1.47  1.32 0.00  0.15  1.10     0.099                                           
        S                       S      4.28  2.86  2.78 0.00  0.08  1.10S    0.250                                           
 ED16 YR HH        7.9 154 108  P      3.07  1.65  1.54 0.00  0.11  1.10     0.087                                           
        S                       S      4.59  3.17  3.23 0.00 -0.06  1.10S    0.207                                           
 ED17 YR HH        8.0  25 107  P      2.94  1.52  1.55 0.00 -0.03  1.10     0.069                                           
        S                       S      4.38  2.96  3.25 0.00 -0.29  1.10S    0.159                                           
 ED18 YR HH       10.2 350 101  P      3.35  1.93  1.90 0.00  0.03  1.10     0.060                                           
        S                       S      5.44  4.02  3.94 0.00  0.08  1.10S    0.129                                           
 ED19 YR HH       10.6 282 101  P      3.37  1.95  1.96 0.00 -0.01  1.10     0.083                                           
        S                       S      5.24  3.82  4.06 0.00 -0.24  1.10S    0.204                                           
 ED22 YR HH       12.7  22  98  P      3.91  2.49  2.30 0.00  0.19  1.10     0.064                                           
        S                       S      6.26  4.84  4.72 0.00  0.12  1.10S    0.149                                           
 ED21 YR HH       14.3   2  96  P      4.02  2.60  2.57 0.00  0.03  1.10     0.061                                           
        S                       S      6.41  4.99  5.22 0.00 -0.23  1.10S    0.225                                           
 NRCA IV HH       14.5 239  96  P      3.63  2.21  2.60 0.00 -0.39  1.10     0.087                                           
 ED09 YR HH       17.1 131  94  P  1   4.56  3.14  3.02 0.00  0.12  0.82     0.038                                           
        S                       S      7.36  5.94  6.08 0.00 -0.14  1.10S    0.172                                           
 ED10 YR HH       17.2 217  94  P  1   4.44  3.02  3.04 0.00 -0.02  0.82     0.045                                           
        S                       S      7.16  5.74  6.11 0.00 -0.37  1.10S    0.199                                           
 ED23 YR HH       17.7 174  94  P      5.03  3.61  3.12 0.00  0.49  0.94     0.049                                           
        S                       S  2   8.46  7.04  6.25 0.00  0.79* 0.00S    0.000                                           
 CSP1 IV EH       21.7 347  81  P      5.69  4.27  3.77 0.00  0.50  0.91     0.052                                           
        S                       S      8.89  7.47  7.50 0.00 -0.03  1.10S    0.296                                           
 ED20 YR HH       21.9 140  81  P      5.22  3.80  3.80 0.00 -0.00  1.10     0.066                                           
        S                       S      8.69  7.27  7.54 0.00 -0.27  1.10S    0.203                                           
 ED24 YR HH       28.0 193  81  P      6.38  4.96  4.78 0.00  0.18  1.10     0.069                                           
        S                       S     11.60 10.18  9.32 0.00  0.86* 0.00S    0.000                                           
 ED11 YRSHH       30.3 219  68  S  2  11.62 10.20 10.02 0.00  0.18  0.55S    0.060                                           
 ED03 YR HH       33.7 191  76  P      7.80  6.38  5.71 0.00  0.67* 0.20     0.002                                           
        S                       S  1  12.71 11.29 11.01 0.00  0.28  0.82S    0.112                                           
 LNSS IVSHH       38.0 210  68  S  2  13.90 12.48 12.26 0.00  0.22  0.55S    0.056                                           
 TERO IV HH       41.5 138  76  P      9.82  8.40  6.94 0.00  1.46* 0.00     0.000                                           
        S                       S     14.82 13.40 13.30 0.00  0.10  1.10S    0.206                                           
 ####################################################################################
  18 OCT 2016,  0:04  SEQUENCE NO.   11, ID NO.         0
                                                        ADJUSTMENTS (KM)
  I ORIGIN   LAT N     LON W     Z   NWR  RMS    DT    DLAT   DLON    DZ    RR NF MOD
  1 21.84  42 46.92   13E 8.17  5.00  33 1.07  0.827 -1.977 -3.132  0.000 3.704 3 MOD
 FREE DEPTH
  2 22.67  42 45.85   13E10.47  5.00  33 0.66  0.042 -0.102 -0.213 -0.665 0.706 4 MOD
  3 22.71  42 45.80   13E10.63  4.33  33 0.66 -0.009 -0.022 -0.001  0.060 0.064 4 MOD
 BEGIN MAIN DISTANCE WEIGHTING
 BEGIN RESIDUAL WEIGHTING
  4 22.70  42 45.79   13E10.63  4.39  30 0.41 -0.082 -0.754 -0.505  0.205 0.931 4 MOD
  5 22.62  42 45.38   13E11.00  4.60  30 0.30 -0.044 -0.386 -0.310  0.018 0.496 4 MOD
  6 22.57  42 45.17   13E11.23  4.62  29 0.26 -0.045 -0.219 -0.207  0.253 0.394 4 MOD
  7 22.53  42 45.05   13E11.38  4.87  29 0.24 -0.030 -0.122 -0.159  0.165 0.259 4 MOD
  8 22.50  42 44.99   13E11.50  5.04  29 0.23 -0.011 -0.047 -0.028  0.092 0.108 4 MOD
  9 22.49  42 44.96   13E11.52  5.13  29 0.23 -0.001  0.000 -0.010 -0.007 0.013 4 MOD

              EIGENVALUES
     ( 5.587  0.927  0.869  0.239)
      EIGENVECTORS OF ADJUSTMENT                COVARIANCE             ERRORS
 OT  (-0.998 -0.018  0.015  0.056) (   0.006   0.002  -0.005  -0.062)   0.075
 LAT ( 0.020 -0.992  0.128  0.004) (   0.002   0.075  -0.002  -0.004)   0.273
 LON (-0.016 -0.128 -0.990 -0.065) (  -0.005  -0.002   0.089   0.066)   0.298
 Z   (-0.055  0.004  0.066 -0.996) (  -0.062  -0.004   0.066   1.110)   1.053
 ERROR ELLIPSE: <SERR AZ DIP>-<   1.06 267 86>-<   0.29  82  3>-<   0.27 353  0>
 ------------------------------------------------------------------------------------
 YEAR MO DA  --ORIGIN--  --LAT N-  --LON W--  DEPTH-G RMS   ERH   ERZ  XMAG1 FMAG1 PMAG GEOID-DEP
 2016-10-18  0004 22.49  42 44.96   13E11.52   4.14  0.23  0.29  1.05                       4.14
                                                                                          SOURCE
 NSTA NPHS  DMIN MODEL GAP ITR NFM NWR NWS NVR REMRKS-AVH  N.XMG-XMMAD-T   N.FMG-FMMAD-T  L F X
   33   33   5.2  MODS  47   9   0  29  16  33                                                 

 XMAG2-N.XMG2-XMMAD-T-S  FMAG2-N.FMG2-FMMAD-T-S  PREF.MAG-N.PMAG-PRMAD-T DEPDAT NS ZT TYP
                                                                            987  5  G CRH
 REGION=                          

 STA NET COM L CR DIST AZM  AN P/S WT   SEC (TOBS -TCAL -DLY  =RES)  WT   SR  INFO  CAL  DUR-W-FMAG-T -AMP-U-PER-W-XMAG-T DE
 ED10 YR HH        5.2 307 136  P     23.84  1.35  1.37 0.00 -0.02  1.12     0.124                                           
        S                       S     25.10  2.61  2.81 0.00 -0.20  1.12S    0.505                                           
 ED23 YR HH        7.8  95 123  P     24.43  1.94  1.69 0.00  0.25  1.12     0.097                                           
        S                       S     26.43  3.94  3.45 0.00  0.49  1.12S    0.356                                           
 ED24 YR HH       10.4 179 114  P     24.51  2.02  2.05 0.00 -0.03  1.12     0.082                                           
        S                       S     26.44  3.95  4.14 0.00 -0.19  1.12S    0.205                                           
 NRCA IV HH       11.3 326 112  P     24.71  2.22  2.18 0.00  0.04  1.12     0.071                                           
        S                       S     26.64  4.15  4.40 0.00 -0.25  1.12S    0.165                                           
 ED16 YRSHH       13.6  43 102  S  2  27.66  5.17  5.03 0.00  0.14  0.56S    0.039                                           
 ED11 YR HH       14.6 243 105  P     25.36  2.87  2.68 0.00  0.19  1.12     0.101                                           
        S                       S     27.64  5.15  5.34 0.00 -0.19  1.12S    0.206                                           
 ED03 YR HH       16.3 181 103  P     25.42  2.93  2.93 0.00  0.00  1.12     0.094                                           
        S                       S     28.13  5.64  5.81 0.00 -0.17  1.12S    0.185                                           
 SMA1 IVSEH       17.7 138  97  S     31.61  9.12  6.22 0.00  2.90* 0.00S    0.000                                           
 MC2  IV EH       18.0   0 101  P  2  24.70  2.21  3.20 0.00 -0.99* 0.18     0.002                                           
 ED12 YR HH       18.7 290 100  P     25.99  3.50  3.31 0.00  0.19  1.12     0.114                                           
        S                       S     29.09  6.60  6.52 0.00  0.08  1.12S    0.219                                           
 ED19 YRSHH       19.4 348  96  S     29.41  6.92  6.73 0.00  0.19  1.12S    0.168                                           
 ED09 YR HH       19.8  73  99  P     25.90  3.41  3.48 0.00 -0.07  1.12     0.081                                           
        S                       S  1  29.01  6.52  6.84 0.00 -0.32  0.84S    0.092                                           
 ED20 YR HH       19.9  90  99  P     25.79  3.30  3.50 0.00 -0.20  1.12     0.083                                           
        S                       S     28.79  6.30  6.88 0.00 -0.58* 1.12S    0.168                                           
 MMO1 IV EH       20.0  33  99  P     26.11  3.62  3.51 0.00  0.11  1.12     0.081                                           
        S                       S     29.41  6.92  6.89 0.00  0.03  1.12S    0.155                                           
 LNSS IVSHH       20.5 218  95  S  2  29.58  7.09  7.04 0.00  0.05  0.56S    0.057                                           
 ED25 YRSHH       21.2 141  95  S     31.20  8.71  7.26 0.00  1.45* 0.00S    0.000                                           
 ED04 YRSHH       21.3 156  95  S     30.81  8.32  7.27 0.00  1.05* 0.20S    0.005                                           
 ED17 YR HH       25.9  21  95  P     27.03  4.54  4.44 0.00  0.10  1.12     0.097                                           
        S                       S     31.07  8.58  8.61 0.00 -0.03  1.12S    0.167                                           
 ED07 YRSHH       26.1 120  93  S     33.32 10.83  8.68 0.00  2.15* 0.00S    0.000                                           
 RM33 IVSEH       26.8 176  93  S  2  33.52 11.03  8.87 0.00  2.16* 0.00S    0.000                                           
 ED05 YRSHH       32.8 154  92  S     33.52 11.03 10.63 0.00  0.40  1.12S    0.204                                           
 TERO IV HH       36.6 112  92  P  1  28.43  5.94  6.13 0.00 -0.19  0.84     0.062                                           
 ####################################################################################
