 HYPOINVERSE 2000
 6/2014 VERSION 1.40 (geoid depth possible)                            
 RUN ON Thu Apr 18 16:48:40 2024      RUN LABEL= 
 PROCESSING DOMAIN=NC  PROCESSING VERSION=01


 TEST PARAMETERS:
   -ITERATION AND CONVERGENCE-     -WEIGHTING AND ERRORS-     -MISCELLANEOUS-
       20=ITRLIM   0.900=DAMP    50.000=DISCUT   0.160=RMSCUT       4=MINSTA
    0.040=DQUIT    0.001=DRQT     1.000=DISW1    1.500=RMSW1        0=NET
    7.000=DXFIX    0.012=EIGTOL   3.000=DISW2    3.000=RMSW2 
   30.000=DZMAX    0.020=RBACK        4=ITRDIS       4=ITRRES   5.000=ZTR
    0.500=DZAIR    0.600=BACFAC   1.000=SWT      0.100=RDERR 
                                                 1.000=ERCOF

      ------DURATION MAG CONSTANTS------       -DELAYS & MISC-    -STATIONS-
   -5.200=FMA1    -0.905=FMA2   -1.0300=DMA0         F=LMULT        F=ATTEN
    3.890=FMB1     2.026=FMB2    2.1000=DMA1         T=CODAWT       5=SITE-LET
    0.013=FMZ1     0.013=FMZ2    0.0000=DMA2         F=LJUNK        2=NET-LET
    0.004=FMD1     0.004=FMD2    0.0000=DMZ                         0=COMP-LET
    0.000=FMF1     0.000=FMF2    1.0000=DMGN  
    0.000=FMGN   210.000=FMBRK   0.0027=DMLIN 
   0.0000=DCOF1    0.000=DBRK1        1=LOGA0 
   0.0000=DCOF2    0.000=DBRK2 
   0.0000=ZCOF     0.000=ZBRK  

    --- MAGNITUDE LABELS & COMPONENTS ---
    FMAG1: LABEL=   ALL COMPS=
    FMAG2: LABEL=    NO COMPS=
    XMAG1: LABEL=   ALL  TYPE=ALL  COMPS=
    XMAG2: LABEL=    NO  TYPE=ALL  COMPS=
    FMAG1 MAGSEL=1  FMAG2 MAGSEL=1

 INPUT FILES:
 COMMANDS:    hypinst                                                     
                                                                          
 STATIONS:    ./stations_hypoinverse.dat                                  STATION FORMAT CODE= 3
 DELAYS:                                                                   
 ATTENUATIONS:                                                             
 CAL FACTORS:                                                              
 FMAG CORRECT:                                                             
 XMAG CORRECT:                                                             

 PHASES:       ./hypoInv/hypoInput.arc                                     
        PHASE FORMAT CODE= 3, TERMINATOR FORMAT CODE=1
 HOMOGENEOUS LAYER CRUST 1:  ./hypoInv/velocity_model_P.crh                              
 HOMOGENEOUS LAYER CRUST 2:  ./hypoInv/velocity_model_S.crh                              

 OUTPUT FILES: (T IF APPENDED TO)
 (F) PRINTOUT:    ./hypoInv/prtOut.prt                                        
 (F) SUMMARY:     ./hypoInv/catOut.sum                                        FORMAT CODE=1
 (F) ARCHIVE:     ./hypoInv/hypoOut.arc                                       ARCHIVE FORMAT CODE= 1

 ####################################################################################
  18 OCT 2016,  0:00  SEQUENCE NO.    1, ID NO.         0
                                                        ADJUSTMENTS (KM)
  I ORIGIN   LAT N     LON W     Z   NWR  RMS    DT    DLAT   DLON    DZ    RR NF MOD
  1 12.14  42 54.99   13E11.04  5.00  10 2.00  0.289 -7.683 -6.982  0.00010.382 3 MOD
  2 12.43  42 50.84   13E16.18  5.00  10 1.67 -0.957 -2.467 -5.339  0.000 5.882 3 MOD
 FREE DEPTH
  3 11.47  42 49.51   13E20.11  5.00  10 1.32 -1.353  1.865 -9.184 21.50323.456 4 MOD
 BEGIN MAIN DISTANCE WEIGHTING
 BEGIN RESIDUAL WEIGHTING
 RMS INCREASE - MOVE HYPO 0.60 BACK
  4 10.12  42 50.52   13E26.87 26.50  10 2.58  0.812 -1.119  5.511-12.90214.074 4 MOD
  5 10.93  42 49.92   13E22.81 13.60   9 0.98  1.178 -0.096 19.584 -1.51219.643 4 MOD
 RMS INCREASE - MOVE HYPO 0.60 BACK
  6 12.11  42 49.86   13E 8.40 12.09   9 2.20 -0.707  0.058-11.751  0.90711.786 4 MOD
  7 11.40  42 49.89   13E17.05 13.00   9 0.95  0.592  0.463  8.413 -8.20511.761 4 MOD
 RMS INCREASE - MOVE HYPO 0.60 BACK
  8 11.99  42 50.14   13E10.86  4.79   9 1.09 -0.355 -0.278 -5.048  4.923 7.057 4 MOD
  9 11.64  42 49.99   13E14.57  9.71   9 0.80  0.009  1.000  1.428 -3.603 4.003 4 MOD
 10 11.65  42 50.53   13E13.52  6.11   9 0.55 -0.043  1.840 -2.739  6.346 7.153 4 MOD
 RMS INCREASE - MOVE HYPO 0.60 BACK
 11 11.60  42 51.53   13E15.54 12.46   9 0.61  0.026 -1.104  1.643 -3.808 4.292 4 MOD
 12 11.63  42 50.93   13E14.33  8.65   9 0.48  0.790  3.644 -1.323 -1.834 4.289 4 MOD
 13 12.42  42 52.90   13E15.30  6.82   8 0.17  0.229  0.645 -0.052 -1.102 1.277 4 MOD
 14 12.65  42 53.25   13E15.34  5.71   8 0.12  0.136  0.384 -0.025 -0.771 0.862 4 MOD
 15 12.79  42 53.45   13E15.36  4.94   8 0.09  0.083  0.249 -0.024 -0.541 0.596 4 MOD
 16 12.87  42 53.59   13E15.38  4.40   8 0.08  0.060  0.191  0.015 -0.475 0.512 4 MOD
 17 12.93  42 53.69   13E15.36  3.93   8 0.07 -0.010  0.019 -0.069  0.161 0.177 4 MOD
 18 12.92  42 53.70   13E15.42  4.09   8 0.07  0.077  0.238  0.093 -0.764 0.805 4 MOD

              EIGENVALUES
     ( 2.891  0.374  0.239  0.041)
      EIGENVECTORS OF ADJUSTMENT                COVARIANCE             ERRORS
 OT  (-0.985 -0.040 -0.143 -0.091) (   0.078   0.227   0.094  -0.737)   0.279
 LAT ( 0.146 -0.704 -0.646 -0.256) (   0.227   0.732   0.260  -2.061)   0.855
 LON (-0.068 -0.643  0.747 -0.154) (   0.094   0.260   0.401  -1.255)   0.633
 Z   (-0.065 -0.298 -0.066  0.950) (  -0.737  -2.061  -1.255   7.790)   2.791
 ERROR ELLIPSE: <SERR AZ DIP>-<   2.92 148 72>-<   0.51  50  3>-<   0.33 318 17>
 ------------------------------------------------------------------------------------
 YEAR MO DA  --ORIGIN--  --LAT N-  --LON W--  DEPTH-G RMS   ERH   ERZ  XMAG1 FMAG1 PMAG GEOID-DEP
 2016-10-18  0000 12.92  42 53.70   13E15.42   3.32  0.07  0.88  2.79                       3.32
                                                                                          SOURCE
 NSTA NPHS  DMIN MODEL GAP ITR NFM NWR NWS NVR REMRKS-AVH  N.XMG-XMMAD-T   N.FMG-FMMAD-T  L F X
   10   10   5.7  MODS 204  18   0   8   4  10                                                 

 XMAG2-N.XMG2-XMMAD-T-S  FMAG2-N.FMG2-FMMAD-T-S  PREF.MAG-N.PMAG-PRMAD-T DEPDAT NS ZT TYP
                                                                            770  5  G CRH
 REGION=                          

 STA NET COM L CR DIST AZM  AN P/S WT   SEC (TOBS -TCAL -DLY  =RES)  WT   SR  INFO  CAL  DUR-W-FMAG-T -AMP-U-PER-W-XMAG-T DE
 MMO1 IV EH        5.7  85 126  P     14.30  1.38  1.33 0.00  0.05  1.07     0.584                                           
        S                       S     15.67  2.75  2.77 0.00 -0.02  1.07S    0.769                                           
 MC2  IV EH        5.8 289 125  P  1  14.14  1.22  1.34 0.00 -0.12  0.80     0.859                                           
 ED17 YR HH        8.9  28 111  P     14.71  1.79  1.77 0.00  0.02  1.07     0.247                                           
        S                       S     16.46  3.54  3.64 0.00 -0.10  1.07S    0.504                                           
 ED18 YR HH       10.8 355 105  P     15.01  2.09  2.05 0.00  0.04  1.07     0.285                                           
        S                       S     17.19  4.27  4.18 0.00  0.09  1.07S    0.444                                           
 ED21 YRSHH       15.0   4  90  S  1  18.24  5.32  5.44 0.00 -0.12  0.80S    0.304                                           
 ED03 YR HH       32.9 190  90  P  1  15.01  2.09  5.54 0.00 -3.45* 0.00     0.000                                           
 OFFI IVSHH       35.3  82  90  S  2  15.70  2.78 11.36 0.00 -8.58* 0.00S    0.000                                           
 ####################################################################################
  18 OCT 2016,  0:00  SEQUENCE NO.    2, ID NO.         0
                                                        ADJUSTMENTS (KM)
  I ORIGIN   LAT N     LON W     Z   NWR  RMS    DT    DLAT   DLON    DZ    RR NF MOD
  1 29.23  42 46.92   13E 8.17  5.00  25 1.85  1.613  1.576  1.141  0.000 1.945 3 MOD
 FREE DEPTH
 AIRQUAKE PREVENTED
  2 30.84  42 47.77   13E 7.33  5.00  25 0.65  0.244 -0.034 -0.491 -2.500 2.548 4 MOD
 AIRQUAKE PREVENTED
  3 31.09  42 47.75   13E 7.69  2.50  25 0.52  0.043  0.064 -0.411 -1.250 1.317 4 MOD
 BEGIN MAIN DISTANCE WEIGHTING
 BEGIN RESIDUAL WEIGHTING
 AIRQUAKE PREVENTED
  4 31.13  42 47.79   13E 7.99  1.25  24 0.39 -0.035 -0.075 -0.321 -0.625 0.707 4 MOD
 AIRQUAKE PREVENTED
  5 31.09  42 47.75   13E 8.23  0.62  24 0.34 -0.024 -0.054 -0.147 -0.312 0.349 4 MOD
 AIRQUAKE PREVENTED
  6 31.07  42 47.72   13E 8.34  0.31  23 0.32 -0.013 -0.022 -0.070 -0.156 0.173 4 MOD
 RMS INCREASE - MOVE HYPO 0.60 BACK
  7 31.06  42 47.71   13E 8.39  0.16  24 0.38  0.008  0.013  0.042  0.094 0.104 4 MOD
 AIRQUAKE PREVENTED
  8 31.06  42 47.71   13E 8.36  0.25  23 0.32 -0.011 -0.018 -0.056 -0.125 0.138 4 MOD
 RMS INCREASE - MOVE HYPO 0.60 BACK
  9 31.05  42 47.70   13E 8.40  0.12  24 0.38  0.006  0.011  0.033  0.075 0.083 4 MOD
 AIRQUAKE PREVENTED
 10 31.06  42 47.71   13E 8.38  0.20  23 0.31 -0.009 -0.018 -0.046 -0.100 0.112 4 MOD
 RMS INCREASE - MOVE HYPO 0.60 BACK
 11 31.05  42 47.70   13E 8.41  0.10  24 0.38  0.006  0.011  0.028  0.060 0.067 4 MOD
 RMS INCREASE - MOVE HYPO 0.60 BACK
 12 31.06  42 47.70   13E 8.39  0.16  24 0.38  0.002  0.004  0.011  0.024 0.027 4 MOD
 AIRQUAKE PREVENTED
 13 31.06  42 47.71   13E 8.38  0.18  24 0.38 -0.011 -0.012 -0.031 -0.092 0.098 4 MOD

              EIGENVALUES
     ( 5.172  1.165  0.691  0.290)
      EIGENVECTORS OF ADJUSTMENT                COVARIANCE             ERRORS
 OT  (-0.995  0.065  0.025  0.074) (   0.016  -0.002   0.021   0.132)   0.127
 LAT ( 0.055  0.981 -0.180 -0.054) (  -0.002   0.124   0.015  -0.097)   0.352
 LON (-0.018 -0.163 -0.960  0.226) (   0.021   0.015   0.391   0.332)   0.625
 Z   ( 0.083  0.087  0.211  0.970) (   0.132  -0.097   0.332   1.727)   1.314
 ERROR ELLIPSE: <SERR AZ DIP>-<   1.35 257 76>-<   0.57 100 12>-<   0.34   9  5>
 ------------------------------------------------------------------------------------
 YEAR MO DA  --ORIGIN--  --LAT N-  --LON W--  DEPTH-G RMS   ERH   ERZ  XMAG1 FMAG1 PMAG GEOID-DEP
 2016-10-18  0000 31.06  42 47.71   13E 8.38  -0.60  0.38  0.55  1.31                      -0.60
                                                                                          SOURCE
 NSTA NPHS  DMIN MODEL GAP ITR NFM NWR NWS NVR REMRKS-AVH  N.XMG-XMMAD-T   N.FMG-FMMAD-T  L F X
   25   25   2.0  MODS  59  13   0  24  13  25      #                                          

 XMAG2-N.XMG2-XMMAD-T-S  FMAG2-N.FMG2-FMMAD-T-S  PREF.MAG-N.PMAG-PRMAD-T DEPDAT NS ZT TYP
                                                                            785  5  G CRH
 REGION=                          

 STA NET COM L CR DIST AZM  AN P/S WT   SEC (TOBS -TCAL -DLY  =RES)  WT   SR  INFO  CAL  DUR-W-FMAG-T -AMP-U-PER-W-XMAG-T DE
 ED10 YR HH        2.0 176  95  P     31.23  0.17  0.75 0.00 -0.58* 1.31     0.273                                           
        S                       S  1  31.78  0.72  1.44 0.00 -0.72* 0.92S    0.225                                           
 NRCA IV HH        4.7 335  82  P     32.03  0.97  0.93 0.00  0.04  1.31     0.166                                           
        S                       S     32.81  1.75  2.09 0.00 -0.34  1.31S    0.301                                           
 ED12 YR HH       13.4 276  77  P     34.06  3.00  2.44 0.00  0.56* 1.31     0.194                                           
        S                       S  2  36.12  5.06  5.12 0.00 -0.06  0.66S    0.171                                           
 ED23 YRSHH       13.4 115  74  S  2  37.82  6.76  5.13 0.00  1.63* 0.00S    0.000                                           
 MC2  IVSEH       13.5  17  71  S     36.59  5.53  5.19 0.00  0.34  1.31S    0.173                                           
 ED19 YR HH       13.8   0  77  P     32.74  1.68  2.52 0.00 -0.84* 0.85     0.055                                           
        S                       S  1  36.71  5.65  5.29 0.00  0.36  0.98S    0.105                                           
 ED11 YR HH       14.7 217  77  P  1  33.76  2.70  2.67 0.00  0.03  0.98     0.085                                           
        S                       S     36.72  5.66  5.58 0.00  0.08  1.31S    0.495                                           
 ED24 YR HH       16.1 164  77  P     33.75  2.69  2.91 0.00 -0.22  1.31     0.166                                           
        S                       S  1  36.54  5.48  6.02 0.00 -0.54* 0.98S    0.255                                           
 MMO1 IV EH       19.2  52  76  P     34.43  3.37  3.45 0.00 -0.08  1.31     0.198                                           
        S                       S  2  38.44  7.38  7.00 0.00  0.38  0.66S    0.072                                           
 T1299IV EH       21.4 146  67  P  2  35.81  4.75  3.81 0.00  0.94* 0.22     0.004                                           
        S                       S  1  39.20  8.14  7.69 0.00  0.45  0.98S    0.250                                           
 ED18 YR HH       23.4  21  67  P  2  36.03  4.97  4.14 0.00  0.83* 0.44     0.010                                           
        S                       S  1  39.47  8.41  8.33 0.00  0.08  0.98S    0.126                                           
 ED17 YR HH       23.4  35  67  P     35.15  4.09  4.15 0.00 -0.06  1.31     0.114                                           
        S                       S     39.15  8.09  8.35 0.00 -0.26  1.31S    0.237                                           
 ED20 YRSHH       24.7 101  61  S  2  40.04  8.98  8.76 0.00  0.22  0.66S    0.113                                           
 ED21 YR HH       28.3  22  67  P  2  35.23  4.17  4.93 0.00 -0.76* 0.56     0.018                                           
        S                       S  1  40.68  9.62  9.83 0.00 -0.21  0.98S    0.181                                           
 ####################################################################################
  18 OCT 2016,  0:00  SEQUENCE NO.    3, ID NO.         0
                                                        ADJUSTMENTS (KM)
  I ORIGIN   LAT N     LON W     Z   NWR  RMS    DT    DLAT   DLON    DZ    RR NF MOD
  1 54.94  42 46.92   13E 8.17  5.00  16 0.99  0.700 -3.503 -4.317  0.000 5.559 3 MOD
 FREE DEPTH
  2 55.64  42 45.03   13E11.34  5.00  16 0.30 -0.256 -0.559 -0.082  2.270 2.339 4 MOD
  3 55.38  42 44.73   13E11.40  7.27  16 0.27  0.026 -0.003 -0.072 -0.815 0.818 4 MOD
 BEGIN MAIN DISTANCE WEIGHTING
 BEGIN RESIDUAL WEIGHTING
  4 55.41  42 44.73   13E11.46  6.45  15 0.17  0.064  0.388  0.676 -0.585 0.974 4 MOD
  5 55.47  42 44.94   13E10.96  5.87  13 0.13 -0.004  0.046  0.054 -0.041 0.082 4 MOD
  6 55.47  42 44.96   13E10.92  5.83  13 0.13 -0.001 -0.003  0.013 -0.004 0.014 4 MOD

              EIGENVALUES
     ( 3.986  0.691  0.529  0.135)
      EIGENVECTORS OF ADJUSTMENT                COVARIANCE             ERRORS
 OT  (-0.995  0.041 -0.012  0.085) (   0.012   0.015  -0.001  -0.119)   0.110
 LAT ( 0.042  0.925  0.362  0.109) (   0.015   0.076   0.014  -0.146)   0.276
 LON (-0.026 -0.364  0.931  0.008) (  -0.001   0.014   0.088  -0.009)   0.297
 Z   (-0.081  0.102  0.046 -0.990) (  -0.119  -0.146  -0.009   1.395)   1.181
 ERROR ELLIPSE: <SERR AZ DIP>-<   1.19 175 83>-<   0.31 292  2>-<   0.23  22  5>
 ------------------------------------------------------------------------------------
 YEAR MO DA  --ORIGIN--  --LAT N-  --LON W--  DEPTH-G RMS   ERH   ERZ  XMAG1 FMAG1 PMAG GEOID-DEP
 2016-10-18  0000 55.47  42 44.96   13E10.92   4.85  0.13  0.31  1.18                       4.85
                                                                                          SOURCE
 NSTA NPHS  DMIN MODEL GAP ITR NFM NWR NWS NVR REMRKS-AVH  N.XMG-XMMAD-T   N.FMG-FMMAD-T  L F X
   16   16   4.5  MODS  81   6   0  13   6  16                                                 

 XMAG2-N.XMG2-XMMAD-T-S  FMAG2-N.FMG2-FMMAD-T-S  PREF.MAG-N.PMAG-PRMAD-T DEPDAT NS ZT TYP
                                                                            975  5  G CRH
 REGION=                          

 STA NET COM L CR DIST AZM  AN P/S WT   SEC (TOBS -TCAL -DLY  =RES)  WT   SR  INFO  CAL  DUR-W-FMAG-T -AMP-U-PER-W-XMAG-T DE
 ED10 YR HH        4.5 313 143  P  1  56.94  1.47  1.39 0.00  0.08  0.90     0.183                                           
 ED23 YR HH        8.6  94 124  P     57.45  1.98  1.86 0.00  0.12  1.20     0.161                                           
        S                       S     59.35  3.88  3.76 0.00  0.12  1.20S    0.637                                           
 ED24 YR HH       10.4 175 118  P     57.49  2.02  2.11 0.00 -0.09  1.20     0.243                                           
        S                       S     59.51  4.04  4.23 0.00 -0.19  1.20S    0.407                                           
 NRCA IV HH       10.9 330 117  P     57.69  2.22  2.16 0.00  0.06  1.20     0.167                                           
        S                       S     59.67  4.20  4.34 0.00 -0.14  1.20S    0.613                                           
 ED11 YR HH       13.9 241 110  P  2  58.38  2.91  2.61 0.00  0.30  0.56     0.071                                           
        S                       S     60.73  5.26  5.18 0.00  0.08  1.20S    0.498                                           
 MC2  IVSEH       18.0   1 101  S  2  62.44  6.97  6.36 0.00  0.61* 0.00S    0.000                                           
 MMO1 IV EH       20.4  35 102  P  1  59.56  4.09  3.60 0.00  0.49  0.02     0.000                                           
        S                       S     62.49  7.02  7.05 0.00 -0.03  1.20S    0.292                                           
 ED20 YR HH       20.7  90 101  P  2  58.82  3.35  3.65 0.00 -0.30  0.56     0.090                                           
        S                       S     61.80  6.33  7.14 0.00 -0.81* 0.00S    0.000                                           
 ED17 YR HH       26.2  23  98  P     60.10  4.63  4.50 0.00  0.13  1.20     0.307                                           
        S                       S     64.07  8.60  8.72 0.00 -0.12  1.20S    0.324                                           
 ####################################################################################
