  18 OCT 2016,  0:05  SEQUENCE NO.   15, ID NO.         0
                                                        ADJUSTMENTS (KM)
  I ORIGIN   LAT N     LON W     Z   NWR  RMS    DT    DLAT   DLON    DZ    RR NF MOD
  1 32.78  42 59.79   13E14.30  5.00  36 4.01  1.985-22.612 -3.263  0.00022.846 3 MOD
  2 34.77  42 47.59   13E16.70  5.00  36 2.40 -1.993  0.341  2.713  0.000 2.735 3 MOD
 FREE DEPTH
  3 32.77  42 47.77   13E14.70  5.00  36 0.92 -0.863  0.433  0.064 14.41714.424 4 MOD
 BEGIN MAIN DISTANCE WEIGHTING
 BEGIN RESIDUAL WEIGHTING
 RMS INCREASE - MOVE HYPO 0.60 BACK
  4 31.91  42 48.01   13E14.66 19.42  36 1.44  0.518 -0.260 -0.039 -8.650 8.654 4 MOD
  5 32.43  42 47.87   13E14.69 10.77  36 0.85 -0.493  0.304  0.092  1.133 1.177 4 MOD
  6 31.93  42 48.03   13E14.62 11.90  35 0.75 -0.011 -0.050  0.052 -0.441 0.447 4 MOD
  7 31.92  42 48.00   13E14.58 11.46  35 0.75 -0.049  0.004  0.122  0.258 0.286 4 MOD
  8 31.87  42 48.01   13E14.49 11.72  35 0.74  0.013 -0.007  0.028 -0.144 0.147 4 MOD
  9 31.89  42 48.00   13E14.47 11.57  35 0.74 -0.011  0.003  0.012  0.073 0.074 4 MOD
 10 31.88  42 48.00   13E14.46 11.65  35 0.74  0.005 -0.003  0.001 -0.050 0.050 4 MOD

              EIGENVALUES
     ( 6.054  1.032  0.518  0.305)
      EIGENVECTORS OF ADJUSTMENT                COVARIANCE             ERRORS
 OT  (-0.992  0.004  0.024  0.123) (   0.107  -0.040  -0.086  -0.728)   0.328
 LAT (-0.008 -0.983  0.174 -0.064) (  -0.040   0.596  -0.250   0.356)   0.772
 LON (-0.031 -0.171 -0.984 -0.050) (  -0.086  -0.250   2.053   0.204)   1.433
 Z   (-0.121  0.072  0.041 -0.989) (  -0.728   0.356   0.204   5.896)   2.428
 ERROR ELLIPSE: <SERR AZ DIP>-<   2.44 323 85>-<   1.45  80  2>-<   0.73 171  4>
 ------------------------------------------------------------------------------------
 YEAR MO DA  --ORIGIN--  --LAT N-  --LON W--  DEPTH-G RMS   ERH   ERZ  XMAG1 FMAG1 PMAG GEOID-DEP
 2016-10-18  0005 31.88  42 48.00   13E14.46  10.85  0.74  1.44  2.43                      10.85
                                                                                          SOURCE
 NSTA NPHS  DMIN MODEL GAP ITR NFM NWR NWS NVR REMRKS-AVH  N.XMG-XMMAD-T   N.FMG-FMMAD-T  L F X
   36   36   6.8  MODS  96  10   0  35  18  36                                                 

 XMAG2-N.XMG2-XMMAD-T-S  FMAG2-N.FMG2-FMMAD-T-S  PREF.MAG-N.PMAG-PRMAD-T DEPDAT NS ZT TYP
                                                                            794  5  G CRH
 REGION=                          

 STA NET COM L CR DIST AZM  AN P/S WT   SEC (TOBS -TCAL -DLY  =RES)  WT   SR  INFO  CAL  DUR-W-FMAG-T -AMP-U-PER-W-XMAG-T DE
 ED16 YR HH        6.8  52 150  P     35.45  3.57  2.36 0.00  1.21* 1.05     0.042                                           
        S                       S     36.97  5.09  4.61 0.00  0.48  1.08S    0.272                                           
 ED23 YR HH        7.4 149 148  P     35.38  3.50  2.40 0.00  1.10* 1.08     0.040                                           
        S                       S     37.44  5.56  4.70 0.00  0.86* 1.08S    0.264                                           
 NRCA IV HH       11.0 290 137  P     36.00  4.12  2.75 0.00  1.37* 0.87     0.068                                           
        S                       S     37.80  5.92  5.36 0.00  0.56* 1.08S    0.291                                           
 MMO1 IV EH       13.1  32 132  P     35.67  3.79  2.99 0.00  0.80* 1.08     0.058                                           
        S                       S     37.19  5.31  5.80 0.00 -0.49  1.08S    0.165                                           
 MC2  IV EH       13.1 342 132  P     35.43  3.55  2.99 0.00  0.56* 1.08     0.066                                           
        S                       S     36.87  4.99  5.80 0.00 -0.81* 1.08S    0.135                                           
 ED19 YR HH       15.7 328 126  P     35.83  3.95  3.30 0.00  0.65* 1.08     0.092                                           
        S                       S     37.55  5.67  6.40 0.00 -0.73* 1.08S    0.160                                           
 ED24 YR HH       16.5 194 125  P     35.68  3.80  3.41 0.00  0.39  1.08     0.080                                           
        S                       S     37.86  5.98  6.60 0.00 -0.62* 1.08S    0.176                                           
 ED20 YR HH       16.9 109 124  P  2  37.63  5.75  3.46 0.00  2.29* 0.00     0.000                                           
        S                       S     38.90  7.02  6.69 0.00  0.33  1.08S    0.216                                           
 T1299IV EH       18.7 169 121  P     35.83  3.95  3.71 0.00  0.24  1.08     0.063                                           
        S                       S     38.09  6.21  7.15 0.00 -0.94* 1.08S    0.112                                           
 ED17 YR HH       19.2  16 121  P     36.23  4.35  3.77 0.00  0.58* 1.08     0.084                                           
        S                       S     38.39  6.51  7.27 0.00 -0.76* 1.08S    0.125                                           
 SMA1 IV EH       20.4 157 119  P     35.99  4.11  3.93 0.00  0.18  1.08     0.063                                           
        S                       S     38.41  6.53  7.57 0.00 -1.04* 1.08S    0.106                                           
 ED18 YR HH       21.3   0 118  P  2  34.78  2.90  4.05 0.00 -1.15* 0.54     0.023                                           
        S                       S     38.88  7.00  7.80 0.00 -0.80* 1.08S    0.114                                           
 ED03 YR HH       22.3 191 117  P     36.22  4.34  4.19 0.00  0.15  1.08     0.097                                           
        S                       S     38.85  6.97  8.07 0.00 -1.10* 1.08S    0.157                                           
 ED22 YRSHH       24.0  16 112  S  2  40.31  8.43  8.52 0.00 -0.09  0.54S    0.035                                           
 ED21 YR HH       25.7   5 113  P     35.67  3.79  4.68 0.00 -0.89* 1.08     0.114                                           
        S                       S     40.15  8.27  8.97 0.00 -0.70* 1.08S    0.136                                           
 ED07 YR HH       26.5 136 112  P     37.04  5.16  4.80 0.00  0.36  1.08     0.089                                           
        S                       S     40.33  8.45  9.19 0.00 -0.74* 1.08S    0.147                                           
 TERO IV HH       35.7 123 106  P     38.42  6.54  6.17 0.00  0.37  1.08     0.127                                           
        S                       S  2  43.52 11.64 11.74 0.00 -0.10  0.54S    0.054                                           
 ED05 YR HH       36.6 163 106  P     38.96  7.08  6.31 0.00  0.77* 1.08     0.111                                           
        S                       S  1  42.75 10.87 12.00 0.00 -1.13* 0.81S    0.070                                           
 ED14 YR HH       42.5 158 103  P  2  38.99  7.11  7.21 0.00 -0.10  0.54     0.030                                           
 ####################################################################################
  18 OCT 2016,  0:05  SEQUENCE NO.   16, ID NO.         0
                                                        ADJUSTMENTS (KM)
  I ORIGIN   LAT N     LON W     Z   NWR  RMS    DT    DLAT   DLON    DZ    RR NF MOD
  1 48.22  42 50.31   13E 6.56  5.00  21 1.46  1.189 -7.644 -3.090  0.000 8.245 3 MOD
  2 49.41  42 46.18   13E 8.83  5.00  21 0.79 -0.300  0.526  0.889  0.000 1.033 3 MOD
 FREE DEPTH
 AIRQUAKE PREVENTED
  3 49.11  42 46.47   13E 8.18  5.00  21 0.71  0.114 -0.145 -0.307 -2.500 2.523 4 MOD
 BEGIN MAIN DISTANCE WEIGHTING
 BEGIN RESIDUAL WEIGHTING
  4 49.22  42 46.39   13E 8.40  2.50  21 0.61 -0.234 -0.322 -0.334  0.218 0.513 4 MOD
  5 48.99  42 46.22   13E 8.65  2.72  18 0.37 -0.141 -0.328 -0.700 -1.517 1.702 4 MOD
  6 48.85  42 46.04   13E 9.16  1.20  18 0.34 -0.033 -0.122  0.206  0.536 0.588 4 MOD
  7 48.82  42 45.97   13E 9.01  1.74  18 0.32  0.002 -0.032  0.004  0.267 0.269 4 MOD
  8 48.82  42 45.96   13E 9.01  2.01  18 0.31  0.031  0.050  0.198  2.491 2.499 4 MOD
 AIRQUAKE PREVENTED
  9 48.85  42 45.98   13E 8.86  4.50  18 0.32  0.059 -0.101 -0.166 -2.248 2.256 4 MOD
 RMS INCREASE - MOVE HYPO 0.60 BACK
 10 48.91  42 45.93   13E 8.99  2.25  18 0.34 -0.035  0.061  0.100  1.349 1.354 4 MOD
 11 48.87  42 45.96   13E 8.91  3.60  18 0.31 -0.032  0.080 -0.405 -1.722 1.770 4 MOD
 12 48.84  42 46.01   13E 9.21  1.87  18 0.31  0.031 -0.127  0.235  0.851 0.892 4 MOD
 13 48.87  42 45.94   13E 9.04  2.73  18 0.31 -0.029  0.027 -0.055 -0.420 0.424 4 MOD
 14 48.84  42 45.95   13E 9.08  2.31  18 0.31 -0.009 -0.005  0.142  0.718 0.732 4 MOD
 15 48.83  42 45.95   13E 8.97  3.02  18 0.30 -0.008 -0.018  0.020  0.206 0.207 4 MOD
 16 48.83  42 45.94   13E 8.96  3.23  18 0.29 -0.006 -0.012 -0.009  0.046 0.049 4 MOD
 17 48.82  42 45.93   13E 8.97  3.28  18 0.29 -0.004 -0.012 -0.008  0.051 0.053 4 MOD
 18 48.81  42 45.93   13E 8.97  3.33  18 0.29 -0.003 -0.006 -0.012  0.025 0.028 4 MOD
 19 48.81  42 45.92   13E 8.98  3.35  18 0.29 -0.001 -0.004 -0.002  0.020 0.021 4 MOD

              EIGENVALUES
     ( 4.408  0.768  0.695  0.178)
      EIGENVECTORS OF ADJUSTMENT                COVARIANCE             ERRORS
 OT  (-0.997 -0.040  0.072  0.010) (   0.006   0.013  -0.014  -0.028)   0.080
 LAT ( 0.075 -0.807  0.586 -0.002) (   0.013   0.171  -0.015   0.009)   0.414
 LON (-0.036 -0.577 -0.790 -0.206) (  -0.014  -0.015   0.301   0.563)   0.549
 Z   (-0.003  0.123  0.166 -0.978) (  -0.028   0.009   0.563   2.856)   1.690
 ERROR ELLIPSE: <SERR AZ DIP>-<   1.72 270 78>-<   0.44  54  9>-<   0.40 145  6>
 ------------------------------------------------------------------------------------
 YEAR MO DA  --ORIGIN--  --LAT N-  --LON W--  DEPTH-G RMS   ERH   ERZ  XMAG1 FMAG1 PMAG GEOID-DEP
 2016-10-18  0005 48.81  42 45.92   13E 8.98   2.32  0.29  0.43  1.69                       2.32
                                                                                          SOURCE
 NSTA NPHS  DMIN MODEL GAP ITR NFM NWR NWS NVR REMRKS-AVH  N.XMG-XMMAD-T   N.FMG-FMMAD-T  L F X
   21   21   8.1  MODS  66  19   0  18  10  21                                                 

 XMAG2-N.XMG2-XMMAD-T-S  FMAG2-N.FMG2-FMMAD-T-S  PREF.MAG-N.PMAG-PRMAD-T DEPDAT NS ZT TYP
                                                                           1036  5  G CRH
 REGION=                          

 STA NET COM L CR DIST AZM  AN P/S WT   SEC (TOBS -TCAL -DLY  =RES)  WT   SR  INFO  CAL  DUR-W-FMAG-T -AMP-U-PER-W-XMAG-T DE
 NRCA IV HH        8.1 340 110  P     50.22  1.41  1.60 0.00 -0.19  1.23     0.176                                           
        S                       S     51.81  3.00  3.34 0.00 -0.34  1.23S    0.348                                           
 ED23 YR HH       11.5 102 101  P  1  51.47  2.66  2.13 0.00  0.53* 0.93     0.157                                           
 ED24 YR HH       12.7 163  99  P     50.83  2.02  2.32 0.00 -0.30  1.23     0.251                                           
        S                       S  1  53.32  4.51  4.72 0.00 -0.21  0.93S    0.282                                           
 ED11 YR HH       12.8 229  99  P  2  51.90  3.09  2.33 0.00  0.76* 0.58     0.056                                           
        S                       S  2  53.58  4.77  4.75 0.00  0.02  0.62S    0.145                                           
 ED12 YR HH       14.8 288  96  P     51.59  2.78  2.66 0.00  0.12  1.23     0.213                                           
        S                       S     54.31  5.50  5.38 0.00  0.12  1.23S    0.520                                           
 ED16 YRSHH       15.1  58  93  S  1  54.36  5.55  5.47 0.00  0.08  0.93S    0.236                                           
 MC2  IV EH       16.5  11  94  P  2  53.34  4.53  2.94 0.00  1.59* 0.00     0.000                                           
        S                       S     55.16  6.35  5.91 0.00  0.44  1.23S    0.236                                           
 T1299IV EH       18.2 143  93  P  2  52.32  3.51  3.20 0.00  0.31  0.62     0.053                                           
 MMO1 IV EH       20.8  44  92  P  1  52.32  3.51  3.62 0.00 -0.11  0.93     0.068                                           
        S                       S     55.91  7.10  7.16 0.00 -0.06  1.23S    0.398                                           
 ED20 YRSHH       23.5  94  72  S  1  57.75  8.94  7.95 0.00  0.99* 0.45S    0.049                                           
 ED17 YR HH       25.8  30  91  P     53.24  4.43  4.42 0.00  0.01  1.23     0.103                                           
        S                       S  1  56.98  8.17  8.63 0.00 -0.46  0.93S    0.256                                           
 ED07 YR HH       30.0 120  79  P     55.91  7.10  5.10 0.00  2.00* 0.00     0.000                                           
        S                       S     58.59  9.78  9.87 0.00 -0.09  1.23S    0.445                                           
 TERO IV HH       40.5 112  79  P     57.47  8.66  6.76 0.00  1.90* 0.00     0.000                                           
 ####################################################################################
  18 OCT 2016,  0:06  SEQUENCE NO.   17, ID NO.         0
                                                        ADJUSTMENTS (KM)
  I ORIGIN   LAT N     LON W     Z   NWR  RMS    DT    DLAT   DLON    DZ    RR NF MOD
  1  7.26  42 38.35   13E16.63  5.00  25 1.07  0.150  2.828  0.746  0.000 2.925 3 MOD
 FREE DEPTH
  2  7.41  42 39.88   13E16.08  5.00  25 0.92 -0.433 -0.507  0.580  5.392 5.447 4 MOD
  3  6.98  42 39.60   13E15.66 10.39  25 0.92  0.293  0.933  0.014 -3.748 3.862 4 MOD
 BEGIN MAIN DISTANCE WEIGHTING
 BEGIN RESIDUAL WEIGHTING
  4  7.27  42 40.11   13E15.65  6.64  25 0.72  0.055 -2.530 -1.451  2.245 3.681 4 MOD
  5  7.33  42 38.74   13E16.71  8.89  22 0.51  0.351 -1.159 -1.612 -1.702 2.616 4 MOD
  6  7.68  42 38.12   13E17.89  7.19  21 0.36  0.269 -0.830 -0.814 -1.286 1.733 4 MOD
  7  7.94  42 37.67   13E18.49  5.90  21 0.21  0.158 -0.446 -0.489 -0.807 1.044 4 MOD
  8  8.10  42 37.43   13E18.85  5.09  21 0.20  0.005  0.016 -0.021 -0.019 0.032 4 MOD
  9  8.11  42 37.44   13E18.86  5.08  21 0.20  0.003  0.009 -0.004 -0.022 0.024 4 MOD

              EIGENVALUES
     ( 4.812  0.692  0.555  0.364)
      EIGENVECTORS OF ADJUSTMENT                COVARIANCE             ERRORS
 OT  (-0.992  0.033  0.014  0.119) (   0.008   0.001  -0.014  -0.042)   0.087
 LAT (-0.001  0.146 -0.987  0.063) (   0.001   0.160   0.005  -0.015)   0.400
 LON (-0.062 -0.959 -0.156 -0.230) (  -0.014   0.005   0.119   0.060)   0.344
 Z   (-0.108  0.242 -0.026 -0.964) (  -0.042  -0.015   0.060   0.354)   0.595
 ERROR ELLIPSE: <SERR AZ DIP>-<   0.61 255 76>-<   0.40 352  1>-<   0.32  81 13>
 ------------------------------------------------------------------------------------
 YEAR MO DA  --ORIGIN--  --LAT N-  --LON W--  DEPTH-G RMS   ERH   ERZ  XMAG1 FMAG1 PMAG GEOID-DEP
 2016-10-18  0006  8.11  42 37.44   13E18.86   3.92  0.20  0.40  0.59                       3.92
                                                                                          SOURCE
 NSTA NPHS  DMIN MODEL GAP ITR NFM NWR NWS NVR REMRKS-AVH  N.XMG-XMMAD-T   N.FMG-FMMAD-T  L F X
   25   25   1.9  MODS  57   9   0  21   9  25                                                 

 XMAG2-N.XMG2-XMMAD-T-S  FMAG2-N.FMG2-FMMAD-T-S  PREF.MAG-N.PMAG-PRMAD-T DEPDAT NS ZT TYP
                                                                           1160  5  G CRH
 REGION=                          

 STA NET COM L CR DIST AZM  AN P/S WT   SEC (TOBS -TCAL -DLY  =RES)  WT   SR  INFO  CAL  DUR-W-FMAG-T -AMP-U-PER-W-XMAG-T DE
 SMA1 IV EH        1.9  66 161  P      9.37  1.26  1.09 0.00  0.17  1.21     0.085                                           
        S                       S     10.53  2.42  2.26 0.00  0.16  1.21S    0.396                                           
 T1299IV EH        2.9 294 152  P      9.26  1.15  1.15 0.00  0.00  1.21     0.125                                           
        S                       S     10.37  2.26  2.38 0.00 -0.12  1.21S    0.351                                           
 ED25 YR HH        4.1 132 142  P      9.42  1.31  1.26 0.00  0.05  1.21     0.087                                           
        S                       S     10.67  2.56  2.59 0.00 -0.03  1.21S    0.325                                           
 ED04 YR HH        5.7 195 133  P  2   9.54  1.43  1.42 0.00  0.01  0.61     0.037                                           
        S                       S  2  10.56  2.45  2.92 0.00 -0.47  0.61S    0.087                                           
 ED03 YR HH       10.4 258 114  P  2  10.22  2.11  2.05 0.00  0.06  0.61     0.066                                           
        S                       S  1  11.86  3.75  4.15 0.00 -0.40  0.91S    0.272                                           
 ED24 YR HH       10.6 290 113  P     10.39  2.28  2.08 0.00  0.20  1.21     0.268                                           
 ED07 YR HH       12.4  87 109  P     10.53  2.42  2.34 0.00  0.08  1.21     0.106                                           
        S                       S     12.66  4.55  4.69 0.00 -0.14  1.21S    0.224                                           
 ED23 YR HH       13.4 351 107  P  2  10.84  2.73  2.50 0.00  0.23  0.61     0.062                                           
 ED05 YR HH       16.1 165 102  P  2  11.42  3.31  2.91 0.00  0.40  0.61     0.060                                           
        S                       S     13.73  5.62  5.77 0.00 -0.15  1.21S    0.494                                           
 ED20 YR HH       17.1  35 101  P     11.15  3.04  3.05 0.00 -0.01  1.21     0.189                                           
        S                       S     13.85  5.74  6.04 0.00 -0.30  1.21S    0.379                                           
 TERO IV HH       23.8  90  96  P  1  12.48  4.37  4.10 0.00  0.27  0.91     0.086                                           
        S                       S     16.07  7.96  7.99 0.00 -0.03  1.21S    0.260                                           
 ED11 YRSHH       24.1 288  94  S  1  12.32  4.21  8.10 0.00 -3.89* 0.00S    0.000                                           
 NRCA IV HH       28.5 325  94  P     11.23  3.12  4.85 0.00 -1.73* 0.00     0.000                                           
        S                       S     12.77  4.66  9.38 0.00 -4.72* 0.00S    0.000                                           
 MC2  IVSEH       33.6 343  92  S  2  16.10  7.99 10.86 0.00 -2.87* 0.00S    0.000                                           
 FIAM IV HH       42.7 203  92  P  2  16.38  8.27  7.10 0.00  1.17* 0.36     0.032                                           
 ####################################################################################
