  18 OCT 2016,  0:06  SEQUENCE NO.   18, ID NO.         0
                                                        ADJUSTMENTS (KM)
  I ORIGIN   LAT N     LON W     Z   NWR  RMS    DT    DLAT   DLON    DZ    RR NF MOD
  1 52.90  42 58.25   13E18.21  5.00  19 1.13  0.805 -5.819  3.475  0.000 6.777 3 MOD
 FREE DEPTH
  2 53.71  42 55.11   13E15.65  5.00  19 0.38 -0.215 -0.134 -0.229 -0.933 0.970 4 MOD
  3 53.49  42 55.04   13E15.82  4.07  19 0.21 -0.065  0.035 -0.049  0.423 0.427 4 MOD
 BEGIN MAIN DISTANCE WEIGHTING
 BEGIN RESIDUAL WEIGHTING
  4 53.42  42 55.06   13E15.85  4.49  17 0.15  0.092  0.141  0.128 -0.685 0.711 4 MOD
  5 53.52  42 55.13   13E15.76  3.81  17 0.14 -0.008  0.013  0.002  0.135 0.135 4 MOD
  6 53.51  42 55.14   13E15.76  3.94  17 0.14 -0.018  0.004 -0.010  0.302 0.302 4 MOD
  7 53.49  42 55.14   13E15.77  4.24  17 0.14  0.009 -0.029  0.031 -0.130 0.136 4 MOD
  8 53.50  42 55.13   13E15.74  4.11  17 0.14 -0.009 -0.015 -0.009  0.141 0.142 4 MOD

              EIGENVALUES
     ( 4.218  0.710  0.555  0.184)
      EIGENVECTORS OF ADJUSTMENT                COVARIANCE             ERRORS
 OT  (-0.996 -0.017 -0.054 -0.064) (   0.005   0.006   0.006  -0.053)   0.073
 LAT ( 0.052 -0.721 -0.689 -0.046) (   0.006   0.074   0.020  -0.033)   0.273
 LON ( 0.032  0.692 -0.718 -0.067) (   0.006   0.020   0.078  -0.049)   0.279
 Z   (-0.060  0.012 -0.084  0.995) (  -0.053  -0.033  -0.049   0.823)   0.907
 ERROR ELLIPSE: <SERR AZ DIP>-<   0.91 124 85>-<   0.30 314  4>-<   0.24  43  0>
 ------------------------------------------------------------------------------------
 YEAR MO DA  --ORIGIN--  --LAT N-  --LON W--  DEPTH-G RMS   ERH   ERZ  XMAG1 FMAG1 PMAG GEOID-DEP
 2016-10-18  0006 53.50  42 55.13   13E15.74   3.24  0.14  0.30  0.91                       3.24
                                                                                          SOURCE
 NSTA NPHS  DMIN MODEL GAP ITR NFM NWR NWS NVR REMRKS-AVH  N.XMG-XMMAD-T   N.FMG-FMMAD-T  L F X
   19   19   5.7  MODS  79   8   0  17   9  19                                                 

 XMAG2-N.XMG2-XMMAD-T-S  FMAG2-N.FMG2-FMMAD-T-S  PREF.MAG-N.PMAG-PRMAD-T DEPDAT NS ZT TYP
                                                                            870  5  G CRH
 REGION=                          

 STA NET COM L CR DIST AZM  AN P/S WT   SEC (TOBS -TCAL -DLY  =RES)  WT   SR  INFO  CAL  DUR-W-FMAG-T -AMP-U-PER-W-XMAG-T DE
 MMO1 IV EH        5.7 112 126  P     54.93  1.43  1.32 0.00  0.11  1.09     0.204                                           
        S                       S     56.13  2.63  2.76 0.00 -0.13  1.09S    0.563                                           
 MC2  IV EH        6.0 263 124  P     55.03  1.53  1.37 0.00  0.16  1.09     0.137                                           
        S                       S     56.33  2.83  2.85 0.00 -0.02  1.09S    0.482                                           
 ED17 YR HH        6.4  35 122  P     54.90  1.40  1.42 0.00 -0.02  1.09     0.118                                           
        S                       S     56.08  2.58  2.95 0.00 -0.37  0.44S    0.055                                           
 ED18 YR HH        8.2 350 114  P     55.25  1.75  1.67 0.00  0.08  1.09     0.093                                           
        S                       S     56.88  3.38  3.44 0.00 -0.06  1.09S    0.260                                           
 ED19 YR HH       10.1 271 108  P     55.59  2.09  1.94 0.00  0.15  1.09     0.110                                           
        S                       S     57.31  3.81  3.97 0.00 -0.16  1.09S    0.268                                           
 ED22 YR HH       11.0  27 105  P  1  55.82  2.32  2.09 0.00  0.23  0.81     0.068                                           
        S                       S     57.73  4.23  4.25 0.00 -0.02  1.09S    0.288                                           
 ED21 YR HH       12.4   3 101  P     56.03  2.53  2.30 0.00  0.23  1.09     0.120                                           
        S                       S     57.95  4.45  4.65 0.00 -0.20  1.09S    0.293                                           
 NRCA IV HH       15.4 232  95  P  1  55.77  2.27  2.77 0.00 -0.50  0.00     0.000                                           
        S                       S     58.97  5.47  5.53 0.00 -0.06  1.09S    0.379                                           
 ED20 YRSHH       23.6 143  90  S  2  61.36  7.86  7.93 0.00 -0.07  0.54S    0.196                                           
 ED24 YR HH       29.8 192  90  P     58.45  4.95  5.05 0.00 -0.10  1.09     0.358                                           
 ED03 YR HH       35.6 190  90  P  2  58.56  5.06  5.96 0.00 -0.90* 0.00     0.000                                           
 ####################################################################################
  18 OCT 2016,  0:07  SEQUENCE NO.   19, ID NO.         0
                                                        ADJUSTMENTS (KM)
  I ORIGIN   LAT N     LON W     Z   NWR  RMS    DT    DLAT   DLON    DZ    RR NF MOD
  1 18.72  42 46.92   13E 8.17  5.00  17 1.49  0.275  0.117-14.770  0.00014.770 3 MOD
 RMS INCREASE - MOVE HYPO 0.60 BACK
  2 18.99  42 46.98   13E19.03  5.00  17 1.81 -0.165 -0.070  8.862 -0.000 8.862 3 MOD
  3 18.83  42 46.95   13E12.51  5.00  17 1.19 -0.817 -0.367 -6.048  0.000 6.059 3 MOD
 FREE DEPTH
 BEGIN MAIN DISTANCE WEIGHTING
 BEGIN RESIDUAL WEIGHTING
  4 18.01  42 46.75   13E16.96  5.00  17 0.88 -0.699 -0.001  3.735 25.81726.086 4 MOD
 RMS INCREASE - MOVE HYPO 0.60 BACK
  5 17.31  42 46.75   13E14.21 30.82  17 3.49  0.420  0.001 -2.241-15.49015.652 4 MOD
 RMS INCREASE - MOVE HYPO 0.60 BACK
  6 17.73  42 46.75   13E15.86 15.33  17 1.34  0.168  0.000 -0.896 -6.196 6.261 4 MOD
 RMS INCREASE - MOVE HYPO 0.60 BACK
  7 17.90  42 46.75   13E16.52  9.13  17 0.92  0.067  0.000 -0.359 -2.478 2.504 4 MOD
  8 17.97  42 46.75   13E16.78  6.65  17 0.88 -0.155 -0.054  1.002  0.375 1.071 4 MOD
  9 17.81  42 46.72   13E16.05  7.03  17 0.84  0.091 -0.048 -0.407 -2.601 2.633 4 MOD
 DEPTH ADJUSTMENT DAMPED
 10 17.90  42 46.69   13E16.35  4.43  17 0.83 -0.527 -0.040  3.411 17.13817.474 4 MOD
 RMS INCREASE - MOVE HYPO 0.60 BACK
 11 17.38  42 46.67   13E13.84 21.56  17 1.93  0.316  0.024 -2.047-10.28310.484 4 MOD
 RMS INCREASE - MOVE HYPO 0.60 BACK
 12 17.69  42 46.68   13E15.34 11.28  17 0.92  0.127  0.010 -0.819 -4.113 4.194 4 MOD
 13 17.82  42 46.69   13E15.95  7.17  17 0.83  0.060  0.000 -0.305 -1.596 1.625 4 MOD
 14 17.88  42 46.69   13E16.17  5.57  17 0.82 -0.188  0.000  1.012  5.051 5.152 4 MOD
 RMS INCREASE - MOVE HYPO 0.60 BACK
 15 17.69  42 46.69   13E15.43 10.62  17 0.89  0.113 -0.000 -0.607 -3.031 3.091 4 MOD
 16 17.81  42 46.69   13E15.87  7.59  17 0.84  0.099 -0.003 -0.507 -2.153 2.212 4 MOD
 17 17.90  42 46.69   13E16.25  5.44  17 0.83 -0.242  0.003  1.220  6.847 6.955 4 MOD
 RMS INCREASE - MOVE HYPO 0.60 BACK
 18 17.66  42 46.69   13E15.35 12.29  17 0.96  0.145 -0.002 -0.732 -4.108 4.173 4 MOD
 RMS INCREASE - MOVE HYPO 0.60 BACK
 19 17.81  42 46.69   13E15.89  8.18  17 0.85  0.058 -0.001 -0.293 -1.643 1.669 4 MOD
 20 17.87  42 46.69   13E16.10  6.54  17 0.84 -0.044  0.008  0.164  0.228 0.281 4 MOD
 21 17.82  42 46.69   13E15.98  6.76  17 0.82  0.032 -0.004 -0.064 -0.974 0.976 4 MOD

              EIGENVALUES
     ( 4.298  0.828  0.378  0.081)
      EIGENVECTORS OF ADJUSTMENT                COVARIANCE             ERRORS
 OT  (-0.992  0.053 -0.104 -0.049) (   0.335   0.054  -0.676  -4.993)   0.579
 LAT ( 0.059  0.996 -0.066  0.006) (   0.054   1.016   0.369   0.512)   1.008
 LON ( 0.086 -0.070 -0.967  0.229) (  -0.676   0.369   9.917  22.003)   3.149
 Z   (-0.070  0.013  0.223  0.972) (  -4.993   0.512  22.003  98.017)   9.900
 ERROR ELLIPSE: <SERR AZ DIP>-<  10.16 271 76>-<   2.18  94 13>-<   1.00   3  0>
 ------------------------------------------------------------------------------------
 YEAR MO DA  --ORIGIN--  --LAT N-  --LON W--  DEPTH-G RMS   ERH   ERZ  XMAG1 FMAG1 PMAG GEOID-DEP
 2016-10-18  0007 17.82  42 46.69   13E15.98   6.00  0.82  2.33  9.89                       6.00
                                                                                          SOURCE
 NSTA NPHS  DMIN MODEL GAP ITR NFM NWR NWS NVR REMRKS-AVH  N.XMG-XMMAD-T   N.FMG-FMMAD-T  L F X
   17   17  10.2  MODS 146  21   0  17   9  17      #                                          

 XMAG2-N.XMG2-XMMAD-T-S  FMAG2-N.FMG2-FMMAD-T-S  PREF.MAG-N.PMAG-PRMAD-T DEPDAT NS ZT TYP
                                                                            762  5  G CRH
 REGION=                          

 STA NET COM L CR DIST AZM  AN P/S WT   SEC (TOBS -TCAL -DLY  =RES)  WT   SR  INFO  CAL  DUR-W-FMAG-T -AMP-U-PER-W-XMAG-T DE
 ED10 YR HH       10.2 270 123  P  1  20.72  2.90  2.15 0.00  0.75* 0.96     0.073                                           
        S                       S  1  23.66  5.84  4.30 0.00  1.54* 0.75S    0.272                                           
 NRCA IV HH       13.9 297 114  P     21.44  3.62  2.66 0.00  0.96* 1.28     0.155                                           
        S                       S     23.04  5.22  5.26 0.00 -0.04  1.28S    0.405                                           
 MMO1 IV EH       14.3  20 113  P  2  21.71  3.89  2.73 0.00  1.16* 0.64     0.111                                           
        S                       S  2  23.18  5.36  5.39 0.00 -0.03  0.64S    0.443                                           
 ED24 YRSHH       14.9 205 109  S     22.71  4.89  5.55 0.00 -0.66* 1.28S    0.442                                           
 MC2  IV EH       16.1 337 110  P  2  22.23  4.41  2.98 0.00  1.43* 0.58     0.026                                           
        S                       S  1  23.04  5.22  5.88 0.00 -0.66* 0.96S    0.133                                           
 ED19 YR HH       18.8 327 107  P  2  21.63  3.81  3.40 0.00  0.41  0.64     0.056                                           
        S                       S     23.29  5.47  6.65 0.00 -1.18* 1.28S    0.286                                           
 ED03 YR HH       20.4 198 105  P  1  21.68  3.86  3.64 0.00  0.22  0.96     0.166                                           
        S                       S     23.76  5.94  7.10 0.00 -1.16* 1.28S    0.356                                           
 ED17 YRSHH       21.1   9 102  S  1  24.59  6.77  7.30 0.00 -0.53* 0.96S    0.268                                           
 ED18 YR HH       23.8 356 102  P     22.46  4.64  4.15 0.00  0.49  1.28     0.259                                           
        S                       S     25.20  7.38  8.06 0.00 -0.68* 1.28S    0.255                                           
 ED05 YR HH       33.7 166  97  P  1  24.30  6.48  5.70 0.00  0.78* 0.96     0.286                                           
 ####################################################################################
  18 OCT 2016,  0:07  SEQUENCE NO.   20, ID NO.         0
                                                        ADJUSTMENTS (KM)
  I ORIGIN   LAT N     LON W     Z   NWR  RMS    DT    DLAT   DLON    DZ    RR NF MOD
  1 25.74  42 38.13   13E19.82  5.00  49 0.82  0.713  1.374  0.960  0.000 1.676 3 MOD
 FREE DEPTH
  2 26.45  42 38.87   13E19.12  5.00  49 0.21  0.043  0.086  0.113  0.247 0.285 4 MOD
  3 26.50  42 38.92   13E19.03  5.25  49 0.20  0.007  0.014  0.015 -0.035 0.040 4 MOD
 BEGIN MAIN DISTANCE WEIGHTING
 BEGIN RESIDUAL WEIGHTING
  4 26.50  42 38.92   13E19.02  5.21  46 0.14 -0.001 -0.175  0.147  0.231 0.325 4 MOD
  5 26.50  42 38.83   13E18.91  5.44  46 0.13  0.001 -0.037  0.017  0.019 0.044 4 MOD
  6 26.50  42 38.81   13E18.90  5.46  46 0.13  0.001 -0.004  0.000 -0.020 0.021 4 MOD

              EIGENVALUES
     ( 7.153  1.193  0.916  0.421)
      EIGENVECTORS OF ADJUSTMENT                COVARIANCE             ERRORS
 OT  (-0.998  0.000 -0.015 -0.066) (   0.001   0.001  -0.000  -0.010)   0.035
 LAT ( 0.003  0.876  0.459 -0.148) (   0.001   0.025  -0.007  -0.019)   0.159
 LON ( 0.010  0.471 -0.880  0.059) (  -0.000  -0.007   0.030   0.006)   0.174
 Z   (-0.067  0.103  0.120  0.985) (  -0.010  -0.019   0.006   0.151)   0.389
 ERROR ELLIPSE: <SERR AZ DIP>-<   0.39 202 80>-<   0.18  63  6>-<   0.14 331  5>
 ------------------------------------------------------------------------------------
 YEAR MO DA  --ORIGIN--  --LAT N-  --LON W--  DEPTH-G RMS   ERH   ERZ  XMAG1 FMAG1 PMAG GEOID-DEP
 2016-10-18  0007 26.50  42 38.81   13E18.90   4.29  0.13  0.18  0.39                       4.29
                                                                                          SOURCE
 NSTA NPHS  DMIN MODEL GAP ITR NFM NWR NWS NVR REMRKS-AVH  N.XMG-XMMAD-T   N.FMG-FMMAD-T  L F X
   49   49   2.5  MODS  56   6   0  46  22  49                                                 

 XMAG2-N.XMG2-XMMAD-T-S  FMAG2-N.FMG2-FMMAD-T-S  PREF.MAG-N.PMAG-PRMAD-T DEPDAT NS ZT TYP
                                                                           1170  5  G CRH
 REGION=                          

 STA NET COM L CR DIST AZM  AN P/S WT   SEC (TOBS -TCAL -DLY  =RES)  WT   SR  INFO  CAL  DUR-W-FMAG-T -AMP-U-PER-W-XMAG-T DE
 SMA1 IV EH        2.5 137 157  P     27.74  1.24  1.18 0.00  0.06  1.17     0.075                                           
        S                       S     28.82  2.32  2.43 0.00 -0.11  1.17S    0.325                                           
 T1299IV EH        3.0 243 152  P     27.79  1.29  1.22 0.00  0.07  1.17     0.068                                           
        S                       S     28.97  2.47  2.50 0.00 -0.03  1.17S    0.290                                           
 ED25 YR HH        6.1 150 132  P     28.15  1.65  1.51 0.00  0.14  1.17     0.049                                           
        S                       S     29.68  3.18  3.09 0.00  0.09  1.17S    0.154                                           
 ED04 YR HH        8.2 191 123  P  2  28.31  1.81  1.77 0.00  0.04  0.59     0.012                                           
        S                       S  2  29.95  3.45  3.59 0.00 -0.14  0.59S    0.030                                           
 ED24 YR HH       10.1 276 117  P     28.71  2.21  2.03 0.00  0.18  1.17     0.051                                           
        S                       S     30.72  4.22  4.10 0.00  0.12  1.17S    0.136                                           
 ED23 YR HH       10.9 348 115  P     28.79  2.29  2.15 0.00  0.14  1.17     0.049                                           
        S                       S     30.83  4.33  4.32 0.00  0.01  1.17S    0.137                                           
 ED03 YR HH       11.3 245 114  P     28.71  2.21  2.21 0.00 -0.00  1.17     0.060                                           
        S                       S     30.75  4.25  4.43 0.00 -0.18  1.17S    0.147                                           
 ED07 YR HH       12.5  99 111  P     28.97  2.47  2.38 0.00  0.09  1.17     0.061                                           
        S                       S     31.12  4.62  4.75 0.00 -0.13  1.17S    0.149                                           
 CAMP IV HH       14.5 147 107  P     29.19  2.69  2.68 0.00  0.01  1.17     0.059                                           
        S                       S     31.53  5.03  5.34 0.00 -0.31  0.92S    0.071                                           
 ED20 YR HH       15.0  40 106  P     29.17  2.67  2.75 0.00 -0.08  1.17     0.065                                           
        S                       S     31.42  4.92  5.47 0.00 -0.55* 0.00S    0.000                                           
 RM33 IV EH       17.4 209 103  P  2  29.84  3.34  3.12 0.00  0.22  0.59     0.019                                           
        S                       S  1  32.70  6.20  6.16 0.00  0.04  0.88S    0.095                                           
 ED05 YR HH       18.6 167 102  P     29.90  3.40  3.31 0.00  0.09  1.17     0.072                                           
        S                       S     33.04  6.54  6.50 0.00  0.04  1.17S    0.138                                           
 ED09 YR HH       19.2  27 101  P     29.78  3.28  3.40 0.00 -0.12  1.17     0.065                                           
        S                       S     32.64  6.14  6.68 0.00 -0.54* 0.00S    0.000                                           
 ED10 YR HH       20.3 316 100  P     30.19  3.69  3.57 0.00  0.12  1.17     0.054                                           
        S                       S     33.29  6.79  7.00 0.00 -0.21  1.17S    0.108                                           
 ED16 YR HH       21.2 359  99  P     30.35  3.85  3.70 0.00  0.15  1.17     0.057                                           
        S                       S  1  33.86  7.36  7.25 0.00  0.11  0.88S    0.068                                           
 ED01 YR HH       22.6 234  98  P     30.60  4.10  3.93 0.00  0.17  1.17     0.091                                           
        S                       S     33.97  7.47  7.67 0.00 -0.20  1.17S    0.194                                           
 ED11 YRSHH       23.5 282  95  S  2  34.08  7.58  7.94 0.00 -0.36  0.26S    0.007                                           
 TERO IV HH       23.9  96  97  P     30.71  4.21  4.13 0.00  0.08  1.17     0.078                                           
        S                       S     34.32  7.82  8.03 0.00 -0.21  1.17S    0.163                                           
 ED15 YR HH       23.9 123  97  P     31.03  4.53  4.14 0.00  0.39  0.31     0.005                                           
        S                       S  1  34.60  8.10  8.06 0.00  0.04  0.88S    0.082                                           
 ED14 YR HH       24.4 156  97  P     30.86  4.36  4.22 0.00  0.14  1.17     0.081                                           
        S                       S  1  34.54  8.04  8.21 0.00 -0.17  0.88S    0.083                                           
 NRCA IV HH       26.5 322  96  P     31.04  4.54  4.54 0.00 -0.00  1.17     0.059                                           
        S                       S     34.94  8.44  8.79 0.00 -0.35  0.60S    0.028                                           
 ED12 YRSHH       32.9 303  93  S  2  36.90 10.40 10.67 0.00 -0.27  0.56S    0.029                                           
 ED19 YR HH       33.5 335  94  P  2  32.10  5.60  5.65 0.00 -0.05  0.59     0.015                                           
        S                       S     37.17 10.67 10.87 0.00 -0.20  1.17S    0.110                                           
 ED17 YR HH       35.4   0  94  P     32.42  5.92  5.95 0.00 -0.03  1.17     0.064                                           
        S                       S     38.04 11.54 11.42 0.00  0.12  1.17S    0.125                                           
 ED18 YR HH       38.7 352  93  P     33.03  6.53  6.47 0.00  0.06  1.17     0.063                                           
        S                       S     39.32 12.82 12.39 0.00  0.43  0.09S    0.000                                           
 ED21 YR HH       42.7 356  93  P  1  33.63  7.13  7.10 0.00  0.03  0.88     0.036                                           
 ####################################################################################
