  18 OCT 2016,  0:04  SEQUENCE NO.   12, ID NO.         0
                                                        ADJUSTMENTS (KM)
  I ORIGIN   LAT N     LON W     Z   NWR  RMS    DT    DLAT   DLON    DZ    RR NF MOD
  1 36.75  42 36.23   13E20.81  5.00  11 1.48  1.280  9.995 -0.257  0.000 9.998 3 MOD
  2 38.03  42 41.62   13E21.00  5.00  11 1.15 -0.717 -0.766  0.100  0.000 0.772 3 MOD
 FREE DEPTH
 AIRQUAKE PREVENTED
  3 37.31  42 41.21   13E20.93  5.00  11 0.77  0.110  0.468 -0.109 -2.500 2.546 4 MOD
 BEGIN MAIN DISTANCE WEIGHTING
 BEGIN RESIDUAL WEIGHTING
  4 37.42  42 41.46   13E21.01  2.50  11 0.70  0.143 -2.458  0.041  5.873 6.366 4 MOD
  5 37.57  42 40.14   13E20.98  8.37  10 0.66 -0.157 -5.818  2.232  1.233 6.352 4 MOD
  6 37.41  42 37.00   13E19.34  9.61  10 0.40  0.041 -0.119  0.163 -2.303 2.312 4 MOD
  7 37.45  42 36.93   13E19.22  7.30  10 0.12 -0.020  0.143 -0.082 -0.085 0.185 4 MOD
  8 37.43  42 37.01   13E19.28  7.22  10 0.11 -0.004 -0.013 -0.009 -0.002 0.016 4 MOD
  9 37.43  42 37.00   13E19.29  7.21  10 0.12  0.000 -0.021  0.010 -0.039 0.046 4 MOD

              EIGENVALUES
     ( 3.368  0.522  0.271  0.177)
      EIGENVECTORS OF ADJUSTMENT                COVARIANCE             ERRORS
 OT  (-0.990  0.001  0.094  0.102) (   0.013   0.053  -0.015  -0.061)   0.113
 LAT ( 0.050  0.335 -0.404  0.850) (   0.053   0.609  -0.175  -0.164)   0.780
 LON (-0.008  0.940  0.204 -0.273) (  -0.015  -0.175   0.147   0.037)   0.383
 Z   (-0.129  0.064 -0.887 -0.439) (  -0.061  -0.164   0.037   0.401)   0.634
 ERROR ELLIPSE: <SERR AZ DIP>-<   0.87 198 25>-<   0.57  27 63>-<   0.30 289  3>
 ------------------------------------------------------------------------------------
 YEAR MO DA  --ORIGIN--  --LAT N-  --LON W--  DEPTH-G RMS   ERH   ERZ  XMAG1 FMAG1 PMAG GEOID-DEP
 2016-10-18  0004 37.43  42 37.00   13E19.29   6.08  0.12  0.78  0.51                       6.08
                                                                                          SOURCE
 NSTA NPHS  DMIN MODEL GAP ITR NFM NWR NWS NVR REMRKS-AVH  N.XMG-XMMAD-T   N.FMG-FMMAD-T  L F X
   11   11   1.9  MODS 136   9   0  10   5  11                                                 

 XMAG2-N.XMG2-XMMAD-T-S  FMAG2-N.FMG2-FMMAD-T-S  PREF.MAG-N.PMAG-PRMAD-T DEPDAT NS ZT TYP
                                                                           1131  5  G CRH
 REGION=                          

 STA NET COM L CR DIST AZM  AN P/S WT   SEC (TOBS -TCAL -DLY  =RES)  WT   SR  INFO  CAL  DUR-W-FMAG-T -AMP-U-PER-W-XMAG-T DE
 SMA1 IVSEH        1.9  36 165  S  2  40.50  3.07  2.86 0.00  0.21  0.62S    0.212                                           
 ED25 YR HH        3.2 128 157  P     38.75  1.32  1.48 0.00 -0.16  1.25     0.360                                           
        S                       S  1  40.02  2.59  2.98 0.00 -0.39  0.32S    0.049                                           
 T1299IV EH        3.8 302 154  P     39.08  1.65  1.51 0.00  0.14  1.25     0.208                                           
        S                       S     40.44  3.01  3.06 0.00 -0.05  1.25S    0.675                                           
 ED07 YR HH       11.8  83 121  P     39.98  2.55  2.41 0.00  0.14  1.25     0.308                                           
        S                       S     42.13  4.70  4.78 0.00 -0.08  1.25S    0.652                                           
 ED05 YR HH       15.2 166 114  P  2  40.32  2.89  2.88 0.00  0.01  0.62     0.463                                           
 MMO1 IV EH       31.4   0  99  P  1  42.72  5.29  5.35 0.00 -0.06  0.94     0.347                                           
        S                       S     43.95  6.52 10.29 0.00 -3.77* 0.00S    0.000                                           
 ED12 YRSHH       35.2 307  97  S     48.78 11.35 11.40 0.00 -0.05  1.25S    0.721                                           
 ####################################################################################
  18 OCT 2016,  0:04  SEQUENCE NO.   13, ID NO.         0
                                                        ADJUSTMENTS (KM)
  I ORIGIN   LAT N     LON W     Z   NWR  RMS    DT    DLAT   DLON    DZ    RR NF MOD
  1 51.73  42 39.64   13E11.24  5.00  23 2.62  1.814 -4.462  4.091  0.000 6.054 3 MOD
 FREE DEPTH
 AIRQUAKE PREVENTED
  2 53.54  42 37.23   13E 8.24  5.00  23 1.10  0.177  0.254  0.090 -2.500 2.514 4 MOD
  3 53.72  42 37.37   13E 8.17  2.50  23 1.06 -0.034  0.396 -0.146 -1.507 1.565 4 MOD
 BEGIN MAIN DISTANCE WEIGHTING
 BEGIN RESIDUAL WEIGHTING
 AIRQUAKE PREVENTED
  4 53.69  42 37.58   13E 8.28  0.99  22 0.91  0.045  0.581 -0.066 -0.496 0.767 4 MOD
 AIRQUAKE PREVENTED
  5 53.73  42 37.90   13E 8.33  0.50  21 0.88  0.002  0.172 -0.047 -0.248 0.306 4 MOD
 AIRQUAKE PREVENTED
  6 53.73  42 37.99   13E 8.36  0.25  21 0.87  0.001  0.076 -0.018 -0.124 0.147 4 MOD
 AIRQUAKE PREVENTED
  7 53.73  42 38.03   13E 8.38  0.12  21 0.87  0.005  0.080 -0.024 -0.062 0.104 4 MOD
 AIRQUAKE PREVENTED
  8 53.74  42 38.07   13E 8.39  0.06  21 0.87 -0.000  0.019 -0.004 -0.031 0.036 4 MOD
 AIRQUAKE PREVENTED
  9 53.74  42 38.08   13E 8.40  0.03  21 0.87  0.000  0.011 -0.002 -0.016 0.019 4 MOD

              EIGENVALUES
     ( 4.956  0.964  0.717  0.304)
      EIGENVECTORS OF ADJUSTMENT                COVARIANCE             ERRORS
 OT  (-0.993  0.092 -0.029  0.062) (   0.070  -0.028  -0.040   0.512)   0.265
 LAT ( 0.073  0.739 -0.635 -0.213) (  -0.028   1.417   0.392  -1.469)   1.191
 LON (-0.042 -0.656 -0.752 -0.046) (  -0.040   0.392   1.208  -0.247)   1.099
 Z   ( 0.077  0.124 -0.173  0.974) (   0.512  -1.469  -0.247   7.875)   2.806
 ERROR ELLIPSE: <SERR AZ DIP>-<   2.86 167 77>-<   1.22 310 10>-<   0.90  42  7>
 ------------------------------------------------------------------------------------
 YEAR MO DA  --ORIGIN--  --LAT N-  --LON W--  DEPTH-G RMS   ERH   ERZ  XMAG1 FMAG1 PMAG GEOID-DEP
 2016-10-18  0004 53.74  42 38.08   13E 8.40  -0.97  0.87  1.20  2.80                      -0.97
                                                                                          SOURCE
 NSTA NPHS  DMIN MODEL GAP ITR NFM NWR NWS NVR REMRKS-AVH  N.XMG-XMMAD-T   N.FMG-FMMAD-T  L F X
   23   23   4.9  MODS  68   9   0  21  10  23      #                                          

 XMAG2-N.XMG2-XMMAD-T-S  FMAG2-N.FMG2-FMMAD-T-S  PREF.MAG-N.PMAG-PRMAD-T DEPDAT NS ZT TYP
                                                                           1005  5  G CRH
 REGION=                          

 STA NET COM L CR DIST AZM  AN P/S WT   SEC (TOBS -TCAL -DLY  =RES)  WT   SR  INFO  CAL  DUR-W-FMAG-T -AMP-U-PER-W-XMAG-T DE
 ED24 YR HH        4.9  61  90  P     53.73 -0.01  0.96 0.00 -0.97* 1.28     0.198                                           
        S                       S     55.39  1.65  2.15 0.00 -0.50  1.28S    0.379                                           
 ED03 YR HH        5.4 130  90  P  2  54.46  0.72  1.06 0.00 -0.34  0.64     0.057                                           
        S                       S  1  56.59  2.85  2.35 0.00  0.50* 0.96S    0.307                                           
 LNSS IV HH        8.9 247  82  P     54.98  1.24  1.67 0.00 -0.43  1.28     0.201                                           
        S                       S  1  57.83  4.09  3.58 0.00  0.51* 0.96S    0.232                                           
 ED11 YR HH       10.6 305  82  P     54.30  0.56  1.96 0.00 -1.40* 1.28     0.239                                           
 ED01 YR HH       12.6 198  82  P  1  55.62  1.88  2.32 0.00 -0.44  0.96     0.112                                           
        S                       S     59.00  5.26  4.89 0.00  0.37  1.28S    0.572                                           
 ED10 YR HH       15.8   0  77  P  1  57.84  4.10  2.87 0.00  1.23* 0.96     0.093                                           
        S                       S  1  58.84  5.10  5.96 0.00 -0.86* 0.96S    0.155                                           
 ED23 YRSHH       17.0  44  61  S  2  60.80  7.06  6.36 0.00  0.70* 0.64S    0.064                                           
 ED08 YR HH       20.8 200  67  P  1  54.90  1.16  3.72 0.00 -2.56* 0.01     0.000                                           
        S                       S  2  58.02  4.28  7.53 0.00 -3.25* 0.00S    0.000                                           
 ED12 YR HH       23.3 326  67  P  1  58.51  4.77  4.13 0.00  0.64* 0.96     0.082                                           
        S                       S  1  63.00  9.26  8.32 0.00  0.94* 0.96S    0.219                                           
 ED20 YR HH       27.3  62  67  P     59.10  5.36  4.79 0.00  0.57* 1.28     0.096                                           
        S                       S     63.56  9.82  9.59 0.00  0.23  1.28S    0.380                                           
 ED09 YR HH       29.6  51  67  P  2  59.38  5.64  5.17 0.00  0.47  0.64     0.022                                           
 ED19 YR HH       31.7   0  67  P     60.87  7.13  5.50 0.00  1.63* 1.14     0.089                                           
        S                       S  2  63.54  9.80 10.86 0.00 -1.06* 0.64S    0.085                                           
 MMO1 IV EH       33.1  27  67  P     60.42  6.68  5.74 0.00  0.94* 1.28     0.089                                           
        S                       S     63.87 10.13 11.29 0.00 -1.16* 1.28S    0.320                                           
 ####################################################################################
  18 OCT 2016,  0:05  SEQUENCE NO.   14, ID NO.         0
                                                        ADJUSTMENTS (KM)
  I ORIGIN   LAT N     LON W     Z   NWR  RMS    DT    DLAT   DLON    DZ    RR NF MOD
  1 17.18  42 30.84   13E12.57  5.00  27 0.90  0.881 -0.160 -3.230  0.000 3.234 3 MOD
 FREE DEPTH
  2 18.06  42 30.75   13E14.93  5.00  27 0.15  0.105  0.056 -0.273 -1.227 1.259 4 MOD
  3 18.17  42 30.78   13E15.13  3.77  27 0.13 -0.043 -0.071  0.062  0.359 0.371 4 MOD
 BEGIN MAIN DISTANCE WEIGHTING
 BEGIN RESIDUAL WEIGHTING
  4 18.12  42 30.75   13E15.09  4.13  26 0.11  0.047  0.112  0.011 -0.645 0.655 4 MOD
  5 18.17  42 30.81   13E15.08  3.49  26 0.11 -0.025 -0.070  0.044  0.348 0.357 4 MOD

              EIGENVALUES
     ( 5.182  0.806  0.773  0.264)
      EIGENVECTORS OF ADJUSTMENT                COVARIANCE             ERRORS
 OT  (-0.995 -0.079 -0.010 -0.064) (   0.002   0.006  -0.003  -0.020)   0.049
 LAT ( 0.089 -0.947 -0.252 -0.180) (   0.006   0.044  -0.005  -0.051)   0.210
 LON (-0.016  0.235 -0.966  0.109) (  -0.003  -0.005   0.041   0.031)   0.202
 Z   (-0.047 -0.206  0.060  0.976) (  -0.020  -0.051   0.031   0.311)   0.557
 ERROR ELLIPSE: <SERR AZ DIP>-<   0.57 212 77>-<   0.19 104  3>-<   0.19  13 11>
 ------------------------------------------------------------------------------------
 YEAR MO DA  --ORIGIN--  --LAT N-  --LON W--  DEPTH-G RMS   ERH   ERZ  XMAG1 FMAG1 PMAG GEOID-DEP
 2016-10-18  0005 18.17  42 30.81   13E15.08   2.37  0.11  0.19  0.56                       2.37
                                                                                          SOURCE
 NSTA NPHS  DMIN MODEL GAP ITR NFM NWR NWS NVR REMRKS-AVH  N.XMG-XMMAD-T   N.FMG-FMMAD-T  L F X
   27   27   3.1  MODS  84   5   0  26  13  27                                                 

 XMAG2-N.XMG2-XMMAD-T-S  FMAG2-N.FMG2-FMMAD-T-S  PREF.MAG-N.PMAG-PRMAD-T DEPDAT NS ZT TYP
                                                                           1113  5  G CRH
 REGION=                          

 STA NET COM L CR DIST AZM  AN P/S WT   SEC (TOBS -TCAL -DLY  =RES)  WT   SR  INFO  CAL  DUR-W-FMAG-T -AMP-U-PER-W-XMAG-T DE
 RM33 IV EH        3.1 261 142  P     19.18  1.01  0.95 0.00  0.06  1.07     0.130                                           
        S                       S     20.12  1.95  2.03 0.00 -0.08  1.07S    0.486                                           
 ED06 YR HH        5.8 200 122  P     19.50  1.33  1.28 0.00  0.05  1.07     0.135                                           
        S                       S     20.82  2.65  2.70 0.00 -0.05  1.07S    0.290                                           
 ED04 YR HH        7.7  29 113  P     19.77  1.60  1.56 0.00  0.04  1.07     0.065                                           
        S                       S     21.46  3.29  3.24 0.00  0.05  1.07S    0.245                                           
 ED05 YR HH        9.9 109 106  P     20.00  1.83  1.89 0.00 -0.06  1.07     0.112                                           
        S                       S  1  21.90  3.73  3.88 0.00 -0.15  0.80S    0.138                                           
 ED03 YR HH       11.1 334 103  P     20.26  2.09  2.08 0.00  0.01  1.07     0.063                                           
        S                       S     22.35  4.18  4.26 0.00 -0.08  1.07S    0.150                                           
 ED25 YR HH       12.6  40 100  P     20.51  2.34  2.30 0.00  0.04  1.07     0.059                                           
        S                       S     22.96  4.79  4.69 0.00  0.10  1.07S    0.156                                           
 ED01 YR HH       13.1 277 100  P     20.66  2.49  2.39 0.00  0.10  1.07     0.143                                           
        S                       S     23.16  4.99  4.86 0.00  0.13  1.07S    0.291                                           
 T1299IV EH       13.6  10  99  P     20.71  2.54  2.48 0.00  0.06  1.07     0.053                                           
        S                       S     23.17  5.00  5.02 0.00 -0.02  1.07S    0.133                                           
 SMA1 IV EH       14.7  27  97  P     20.94  2.77  2.65 0.00  0.12  1.07     0.056                                           
        S                       S     23.63  5.46  5.35 0.00  0.11  1.07S    0.139                                           
 ED24 YR HH       16.5 343  96  P  1  21.32  3.15  2.93 0.00  0.22  0.80     0.038                                           
        S                       S     23.82  5.65  5.90 0.00 -0.25  1.06S    0.138                                           
 ED14 YR HH       16.8 116  95  P     21.05  2.88  2.98 0.00 -0.10  1.07     0.150                                           
        S                       S     24.08  5.91  5.98 0.00 -0.07  1.07S    0.286                                           
 ED07 YR HH       21.7  53  93  P  1  22.00  3.83  3.77 0.00  0.06  0.80     0.043                                           
        S                       S  2  25.30  7.13  7.42 0.00 -0.29  0.43S    0.050                                           
 TERO IV HH       31.4  67  79  P  1  23.47  5.30  5.32 0.00 -0.02  0.80     0.085                                           
        S                       S  1  27.94  9.77 10.27 0.00 -0.50* 0.00S    0.000                                           
 ED12 YRSHH       39.5 326  72  S     30.56 12.39 12.66 0.00 -0.27  0.99S    0.354                                           
 ####################################################################################
