  18 OCT 2016,  0:01  SEQUENCE NO.    4, ID NO.         0
                                                        ADJUSTMENTS (KM)
  I ORIGIN   LAT N     LON W     Z   NWR  RMS    DT    DLAT   DLON    DZ    RR NF MOD
  1 43.12  42 50.31   13E 6.56  5.00  54 0.78  0.752 -0.277 -4.509  0.000 4.518 3 MOD
 FREE DEPTH
  2 43.87  42 50.16   13E 9.88  5.00  54 0.23 -0.020  0.024 -0.286 -0.182 0.340 4 MOD
  3 43.85  42 50.17   13E10.09  4.82  54 0.22 -0.004  0.007 -0.026 -0.004 0.027 4 MOD
 BEGIN MAIN DISTANCE WEIGHTING
 BEGIN RESIDUAL WEIGHTING
  4 43.85  42 50.18   13E10.11  4.81  50 0.15  0.014  0.009 -0.052 -0.506 0.509 4 MOD
  5 43.86  42 50.18   13E10.15  4.31  49 0.14 -0.002  0.029 -0.013 -0.147 0.150 4 MOD
  6 43.86  42 50.20   13E10.16  4.16  48 0.14  0.000  0.006 -0.015 -0.072 0.074 4 MOD
  7 43.86  42 50.20   13E10.17  4.09  48 0.14  0.002  0.001 -0.022 -0.068 0.071 4 MOD

              EIGENVALUES
     ( 7.499  1.284  1.069  0.266)
      EIGENVECTORS OF ADJUSTMENT                COVARIANCE             ERRORS
 OT  (-0.999 -0.017  0.038  0.023) (   0.001  -0.001  -0.002  -0.010)   0.029
 LAT (-0.022  0.991 -0.130 -0.008) (  -0.001   0.019   0.001   0.003)   0.137
 LON (-0.038 -0.131 -0.984 -0.111) (  -0.002   0.001   0.032   0.045)   0.178
 Z   (-0.019  0.006  0.112 -0.993) (  -0.010   0.003   0.045   0.426)   0.653
 ERROR ELLIPSE: <SERR AZ DIP>-<   0.66 274 83>-<   0.16  98  6>-<   0.14   7  0>
 ------------------------------------------------------------------------------------
 YEAR MO DA  --ORIGIN--  --LAT N-  --LON W--  DEPTH-G RMS   ERH   ERZ  XMAG1 FMAG1 PMAG GEOID-DEP
 2016-10-18  0001 43.86  42 50.20   13E10.17   3.29  0.14  0.16  0.65                       3.29
                                                                                          SOURCE
 NSTA NPHS  DMIN MODEL GAP ITR NFM NWR NWS NVR REMRKS-AVH  N.XMG-XMMAD-T   N.FMG-FMMAD-T  L F X
   54   54   4.5  MODS  43   7   0  48  24  54                                                 

 XMAG2-N.XMG2-XMMAD-T-S  FMAG2-N.FMG2-FMMAD-T-S  PREF.MAG-N.PMAG-PRMAD-T DEPDAT NS ZT TYP
                                                                            803  5  G CRH
 REGION=                          

 STA NET COM L CR DIST AZM  AN P/S WT   SEC (TOBS -TCAL -DLY  =RES)  WT   SR  INFO  CAL  DUR-W-FMAG-T -AMP-U-PER-W-XMAG-T DE
 NRCA IV HH        4.5 266 133  P     45.12  1.26  1.18 0.00  0.08  1.18     0.161                                           
        S                       S     46.20  2.34  2.47 0.00 -0.13  1.18S    0.472                                           
 ED10 YR HH        7.0 200 119  P     45.39  1.53  1.50 0.00  0.03  1.18     0.092                                           
        S                       S     46.76  2.90  3.11 0.00 -0.21  1.18S    0.207                                           
 MC2  IV EH        8.5  10 113  P     45.78  1.92  1.70 0.00  0.22  1.18     0.081                                           
        S                       S     47.83  3.97  3.51 0.00  0.46  0.04S    0.000                                           
 ED19 YR HH        9.5 345 109  P     45.82  1.96  1.86 0.00  0.10  1.18     0.068                                           
        S                       S     47.59  3.73  3.82 0.00 -0.09  1.18S    0.122                                           
 ED16 YR HH       11.2  89 104  P     46.17  2.31  2.12 0.00  0.19  1.18     0.062                                           
        S                       S     48.48  4.62  4.32 0.00  0.30  1.06S    0.092                                           
 ED23 YR HH       14.2 137  97  P     46.74  2.88  2.58 0.00  0.30  1.06     0.032                                           
        S                       S     49.60  5.74  5.17 0.00  0.57* 0.00S    0.000                                           
 MMO1 IV EH       14.6  61  96  P     46.59  2.73  2.65 0.00  0.08  1.18     0.045                                           
        S                       S  1  49.14  5.28  5.31 0.00 -0.03  0.88S    0.058                                           
 ED12 YR HH       16.1 258  93  P     46.69  2.83  2.88 0.00 -0.05  1.18     0.084                                           
        S                       S  1  49.32  5.46  5.73 0.00 -0.27  0.86S    0.111                                           
 ED18 YR HH       18.2  19  91  P     47.17  3.31  3.22 0.00  0.09  1.18     0.053                                           
        S                       S     50.19  6.33  6.36 0.00 -0.03  1.18S    0.106                                           
 ED17 YR HH       18.3  38  91  P     47.11  3.25  3.23 0.00  0.02  1.18     0.047                                           
        S                       S     49.91  6.05  6.38 0.00 -0.33  0.89S    0.057                                           
 ED11 YR HH       19.9 215  91  P     47.31  3.45  3.48 0.00 -0.03  1.18     0.068                                           
        S                       S     50.79  6.93  6.84 0.00  0.09  1.18S    0.140                                           
 ED24 YR HH       20.2 174  91  P     47.45  3.59  3.53 0.00  0.06  1.18     0.046                                           
        S                       S  1  50.90  7.04  6.94 0.00  0.10  0.88S    0.051                                           
 ED09 YR HH       21.2 100  90  P     47.56  3.70  3.69 0.00  0.01  1.18     0.042                                           
        S                       S     51.00  7.14  7.23 0.00 -0.09  1.18S    0.104                                           
 ED22 YR HH       22.8  33  90  P     47.99  4.13  3.93 0.00  0.20  1.18     0.051                                           
        S                       S     51.39  7.53  7.69 0.00 -0.16  1.18S    0.101                                           
 ED21 YR HH       23.1  21  90  P     47.89  4.03  3.98 0.00  0.05  1.18     0.055                                           
        S                       S     51.52  7.66  7.78 0.00 -0.12  1.18S    0.105                                           
 ED20 YR HH       23.8 114  90  P     47.91  4.05  4.10 0.00 -0.05  1.18     0.041                                           
        S                       S     51.57  7.71  8.01 0.00 -0.30  1.05S    0.080                                           
 SMA1 IVSEH       26.6 149  90  S  2  52.44  8.58  8.82 0.00 -0.24  0.59S    0.021                                           
 LNSS IV HH       28.0 203  90  P     48.74  4.88  4.77 0.00  0.11  1.18     0.063                                           
        S                       S     53.20  9.34  9.24 0.00  0.10  1.18S    0.121                                           
 CSP1 IV EH       28.5   5  90  P  2  48.82  4.96  4.84 0.00  0.12  0.59     0.015                                           
 CESI IV HH       28.6 311  90  P  1  48.76  4.90  4.85 0.00  0.05  0.88     0.053                                           
        S                       S     53.21  9.35  9.39 0.00 -0.04  1.18S    0.193                                           
 ED02 YR HH       32.5 218  90  P  2  50.02  6.16  5.48 0.00  0.68* 0.00     0.000                                           
        S                       S  1  53.97 10.11 10.56 0.00 -0.45  0.05S    0.000                                           
 ED07 YR HH       33.5 133  90  P     49.58  5.72  5.64 0.00  0.08  1.18     0.040                                           
        S                       S     54.60 10.74 10.84 0.00 -0.10  1.18S    0.092                                           
 ED01 YR HH       35.0 191  90  P     49.90  6.04  5.88 0.00  0.16  1.18     0.056                                           
        S                       S  1  55.04 11.18 11.29 0.00 -0.11  0.88S    0.059                                           
 RM33 IVSEH       36.6 174  90  S  2  55.70 11.84 11.74 0.00  0.10  0.59S    0.022                                           
 CAMP IV HH       38.8 149  90  P  1  50.78  6.92  6.47 0.00  0.45  0.05     0.000                                           
        S                       S  2  55.86 12.00 12.38 0.00 -0.38  0.25S    0.003                                           
 ED05 YRSHH       42.4 157  90  S     57.37 13.51 13.44 0.00  0.07  1.18S    0.087                                           
 TERO IV HH       42.8 123  90  P     50.94  7.08  7.11 0.00 -0.03  1.18     0.041                                           
        S                       S     57.12 13.26 13.56 0.00 -0.30  1.05S    0.077                                           
 ED15 YRSHH       46.8 136  90  S  1  57.87 14.01 14.74 0.00 -0.73* 0.00S    0.000                                           
 ASSB IV HH       47.6 299  90  P     51.58  7.72  7.86 0.00 -0.14  1.18     0.099                                           
 ED14 YRSHH       48.6 153  90  S     59.00 15.14 15.27 0.00 -0.13  1.18S    0.087                                           
 FIAM IV HH       63.3 184  90  P  2  54.24 10.38 10.36 0.00  0.02  0.56     0.012                                           
 ####################################################################################
  18 OCT 2016,  0:02  SEQUENCE NO.    5, ID NO.         0
                                                        ADJUSTMENTS (KM)
  I ORIGIN   LAT N     LON W     Z   NWR  RMS    DT    DLAT   DLON    DZ    RR NF MOD
  1  8.31  42 50.31   13E 6.56  5.00  46 3.19  1.701-15.221-11.548  0.00019.105 3 MOD
  2 10.01  42 42.10   13E15.04  5.00  46 1.46 -1.006  0.962  1.599  0.000 1.866 3 MOD
 FREE DEPTH
  3  9.01  42 42.62   13E13.86  5.00  46 0.97 -0.088  0.193 -0.002 -0.559 0.591 4 MOD
 BEGIN MAIN DISTANCE WEIGHTING
 BEGIN RESIDUAL WEIGHTING
  4  8.92  42 42.72   13E13.87  4.44  46 0.94 -0.148 -0.103  0.330  4.804 4.817 4 MOD
 RMS INCREASE - MOVE HYPO 0.60 BACK
  5  8.77  42 42.66   13E13.62  9.25  46 0.98  0.089  0.062 -0.198 -2.883 2.890 4 MOD
  6  8.86  42 42.70   13E13.77  6.36  46 0.94  0.152  0.195  0.259 -4.308 4.320 4 MOD
 RMS INCREASE - MOVE HYPO 0.60 BACK
  7  9.01  42 42.80   13E13.58  2.05  46 1.01 -0.091 -0.117 -0.155  2.585 2.592 4 MOD
  8  8.92  42 42.74   13E13.69  4.64  46 0.93 -0.134 -0.097  0.294  2.373 2.393 4 MOD
  9  8.78  42 42.69   13E13.48  7.01  46 0.93  0.263  0.230  0.222 -5.522 5.532 4 MOD
 RMS INCREASE - MOVE HYPO 0.60 BACK
 10  9.05  42 42.81   13E13.31  1.49  46 1.04 -0.158 -0.138 -0.133  3.313 3.319 4 MOD
 11  8.89  42 42.74   13E13.41  4.80  46 0.92 -0.107 -0.060  0.259  0.733 0.780 4 MOD
 12  8.78  42 42.70   13E13.22  5.54  46 0.91  0.068  0.089  0.197 -2.825 2.834 4 MOD
 RMS INCREASE - MOVE HYPO 0.60 BACK
 13  8.85  42 42.75   13E13.08  2.71  46 0.96 -0.041 -0.054 -0.118  1.695 1.700 4 MOD
 14  8.81  42 42.72   13E13.16  4.41  46 0.91 -0.068 -0.089  0.123  2.809 2.813 4 MOD
 15  8.74  42 42.68   13E13.07  7.22  46 0.92  0.157  0.127 -0.002 -3.070 3.073 4 MOD
 16  8.90  42 42.74   13E13.08  4.15  46 0.92 -0.111 -0.161  0.111  7.232 7.235 4 MOD
 RMS INCREASE - MOVE HYPO 0.60 BACK
 17  8.79  42 42.66   13E12.99 11.38  46 1.09  0.067  0.097 -0.066 -4.339 4.341 4 MOD
 RMS INCREASE - MOVE HYPO 0.60 BACK
 18  8.85  42 42.71   13E13.04  7.04  46 0.94  0.027  0.039 -0.027 -1.736 1.736 4 MOD
 19  8.88  42 42.73   13E13.06  5.30  46 0.92 -0.010  0.030 -0.010 -1.223 1.223 4 MOD
 20  8.87  42 42.75   13E13.07  4.08  46 0.91 -0.084 -0.149  0.115  7.535 7.537 4 MOD
 RMS INCREASE - MOVE HYPO 0.60 BACK
 21  8.79  42 42.67   13E12.99 11.61  46 1.10  0.050  0.089 -0.069 -4.521 4.522 4 MOD
 RMS INCREASE - MOVE HYPO 0.60 BACK
 22  8.84  42 42.71   13E13.04  7.09  46 0.94  0.020  0.036 -0.028 -1.808 1.809 4 MOD
 23  8.86  42 42.73   13E13.06  5.29  46 0.92 -0.005  0.022  0.002 -1.159 1.159 4 MOD

              EIGENVALUES
     ( 6.981  1.387  0.699  0.141)
      EIGENVECTORS OF ADJUSTMENT                COVARIANCE             ERRORS
 OT  (-0.997  0.018 -0.066 -0.035) (   0.077   0.073  -0.129  -1.478)   0.277
 LAT (-0.002 -0.973 -0.226 -0.037) (   0.073   0.566  -0.303  -1.545)   0.752
 LON (-0.069 -0.226  0.972  0.011) (  -0.129  -0.303   1.671   0.452)   1.293
 Z   (-0.034 -0.033 -0.022  0.999) (  -1.478  -1.545   0.452  42.416)   6.513
 ERROR ELLIPSE: <SERR AZ DIP>-<   6.52 198 87>-<   1.32  77  1>-<   0.66 346  1>
 ------------------------------------------------------------------------------------
 YEAR MO DA  --ORIGIN--  --LAT N-  --LON W--  DEPTH-G RMS   ERH   ERZ  XMAG1 FMAG1 PMAG GEOID-DEP
 2016-10-18  0002  8.86  42 42.73   13E13.06   4.26  0.92  1.32  6.51                       4.26
                                                                                          SOURCE
 NSTA NPHS  DMIN MODEL GAP ITR NFM NWR NWS NVR REMRKS-AVH  N.XMG-XMMAD-T   N.FMG-FMMAD-T  L F X
   46   46  10.2  MODS  92  23   0  46  24  46      #                                          

 XMAG2-N.XMG2-XMMAD-T-S  FMAG2-N.FMG2-FMMAD-T-S  PREF.MAG-N.PMAG-PRMAD-T DEPDAT NS ZT TYP
                                                                           1022  5  G CRH
 REGION=                          

 STA NET COM L CR DIST AZM  AN P/S WT   SEC (TOBS -TCAL -DLY  =RES)  WT   SR  INFO  CAL  DUR-W-FMAG-T -AMP-U-PER-W-XMAG-T DE
 T1299IV EH       10.2 148 116  P     11.91  3.05  2.03 0.00  1.02* 1.14     0.102                                           
        S                       S     12.75  3.89  4.09 0.00 -0.20  1.14S    0.345                                           
 ED03 YR HH       12.3 191 110  P     11.07  2.21  2.34 0.00 -0.13  1.14     0.095                                           
        S                       S     12.55  3.69  4.70 0.00 -1.01* 1.14S    0.231                                           
 SMA1 IV EH       13.3 133 108  P     11.88  3.02  2.48 0.00  0.54* 1.14     0.048                                           
        S                       S     12.84  3.98  4.96 0.00 -0.98* 1.14S    0.147                                           
 ED16 YR HH       15.7  27 104  P     12.85  3.99  2.85 0.00  1.14* 1.14     0.050                                           
        S                       S     14.18  5.32  5.66 0.00 -0.34  1.14S    0.158                                           
 NRCA IV HH       15.9 328 104  P     10.31  1.45  2.88 0.00 -1.43* 1.14     0.084                                           
        S                       S     15.06  6.20  5.72 0.00  0.48  1.14S    0.189                                           
 ED04 YR HH       16.7 156 103  P  1  12.51  3.65  3.00 0.00  0.65* 0.86     0.024                                           
        S                       S     14.01  5.15  5.93 0.00 -0.78* 1.14S    0.077                                           
 ED25 YR HH       16.7 138 103  P  1  12.36  3.50  3.01 0.00  0.49  0.86     0.020                                           
        S                       S     13.76  4.90  5.96 0.00 -1.06* 1.14S    0.082                                           
 ED20 YR HH       18.3  77 101  P     13.69  4.83  3.25 0.00  1.58* 1.07     0.042                                           
        S                       S  2  16.18  7.32  6.41 0.00  0.91* 0.57S    0.042                                           
 ED09 YRSHH       19.5  59  97  S     16.92  8.06  6.76 0.00  1.30* 1.14S    0.158                                           
 MC2  IV EH       22.3 354  98  P  2  12.64  3.78  3.87 0.00 -0.09  0.57     0.013                                           
        S                       S     15.46  6.60  7.56 0.00 -0.96* 1.14S    0.093                                           
 ED12 YR HH       22.3 299  98  P     11.99  3.13  3.87 0.00 -0.74* 1.14     0.132                                           
        S                       S     18.53  9.67  7.57 0.00  2.10* 0.33S    0.023                                           
 ED07 YR HH       22.3 114  98  P     13.24  4.38  3.88 0.00  0.50* 1.14     0.051                                           
        S                       S  1  15.63  6.77  7.58 0.00 -0.81* 0.86S    0.068                                           
 RM33 IV EH       22.6 181  97  P     13.67  4.81  3.92 0.00  0.89* 1.14     0.090                                           
        S                       S  1  16.80  7.94  7.66 0.00  0.28  0.86S    0.081                                           
 MMO1 IV EH       22.6  23  97  P     13.62  4.76  3.93 0.00  0.83* 1.14     0.045                                           
        S                       S     15.49  6.63  7.67 0.00 -1.04* 1.14S    0.101                                           
 ED01 YR HH       23.0 207  97  P     12.30  3.44  3.99 0.00 -0.55* 1.14     0.133                                           
        S                       S  2  18.42  9.56  7.79 0.00  1.77* 0.42S    0.034                                           
 ED19 YR HH       23.9 345  97  P     13.95  5.09  4.13 0.00  0.96* 1.14     0.067                                           
        S                       S     16.09  7.23  8.05 0.00 -0.82* 1.14S    0.106                                           
 CAMP IV HH       25.1 141  96  P     13.69  4.83  4.32 0.00  0.51* 1.14     0.064                                           
        S                       S     15.69  6.83  8.39 0.00 -1.56* 1.09S    0.089                                           
 ED05 YR HH       28.1 154  95  P  2  14.32  5.46  4.80 0.00  0.66* 0.57     0.020                                           
        S                       S     17.44  8.58  9.28 0.00 -0.70* 1.14S    0.110                                           
 ED17 YR HH       29.1  14  95  P     14.43  5.57  4.96 0.00  0.61* 1.14     0.058                                           
        S                       S     17.07  8.21  9.58 0.00 -1.37* 1.14S    0.092                                           
 ED18 YR HH       31.1   3  94  P  1  14.84  5.98  5.26 0.00  0.72* 0.86     0.036                                           
        S                       S     17.80  8.94 10.15 0.00 -1.21* 1.14S    0.090                                           
 TERO IV HH       33.2 107  93  P     15.02  6.16  5.60 0.00  0.56* 1.14     0.080                                           
        S                       S     18.59  9.73 10.76 0.00 -1.03* 1.14S    0.155                                           
 ED22 YRSHH       33.9  15  93  S  2  19.24 10.38 10.96 0.00 -0.58* 0.57S    0.024                                           
 ED14 YR HH       34.6 149  93  P     15.36  6.50  5.81 0.00  0.69* 1.14     0.093                                           
        S                       S  1  18.95 10.09 11.17 0.00 -1.08* 0.86S    0.069                                           
 ED21 YR HH       35.6   7  93  P  2  16.04  7.18  5.97 0.00  1.21* 0.57     0.017                                           
        S                       S  1  19.32 10.46 11.46 0.00 -1.00* 0.86S    0.052                                           
 ####################################################################################
