  18 OCT 2016,  0:03  SEQUENCE NO.    7, ID NO.         0
                                                        ADJUSTMENTS (KM)
  I ORIGIN   LAT N     LON W     Z   NWR  RMS    DT    DLAT   DLON    DZ    RR NF MOD
  1-10.18  42 54.26   13E19.31  5.00  83 0.99  1.001 -0.369  4.554  0.000 4.569 3 MOD
 FREE DEPTH
  2 -9.18  42 54.06   13E15.96  5.00  83 0.34  0.156 -0.149  0.174 -4.558 4.564 4 MOD
 RMS INCREASE - MOVE HYPO 0.60 BACK
  3 -9.02  42 53.98   13E15.83  0.44  83 0.46 -0.094  0.090 -0.104  2.735 2.738 4 MOD
 BEGIN MAIN DISTANCE WEIGHTING
 BEGIN RESIDUAL WEIGHTING
  4 -9.12  42 54.03   13E15.90  3.18  79 0.24 -0.099  0.018 -0.010 -0.841 0.841 4 MOD
  5 -9.22  42 54.04   13E15.91  2.34  78 0.21 -0.045  0.024 -0.045 -0.173 0.180 4 MOD
  6 -9.26  42 54.05   13E15.94  2.16  76 0.20 -0.008  0.042 -0.041  0.211 0.219 4 MOD
  7 -9.27  42 54.07   13E15.97  2.37  76 0.19 -0.009 -0.019  0.010 -0.160 0.161 4 MOD
  8 -9.28  42 54.06   13E15.97  2.21  76 0.19  0.002  0.015 -0.020  0.119 0.121 4 MOD
  9 -9.28  42 54.07   13E15.98  2.33  76 0.19 -0.004 -0.010  0.015 -0.109 0.111 4 MOD

              EIGENVALUES
     ( 9.245  1.783  1.256  0.502)
      EIGENVECTORS OF ADJUSTMENT                COVARIANCE             ERRORS
 OT  (-0.997  0.050 -0.049 -0.024) (   0.001  -0.000   0.000   0.005)   0.028
 LAT (-0.058 -0.945  0.287 -0.146) (  -0.000   0.020  -0.008   0.024)   0.140
 LON ( 0.027 -0.309 -0.940  0.145) (   0.000  -0.008   0.032  -0.022)   0.178
 Z   ( 0.037  0.094 -0.180 -0.978) (   0.005   0.024  -0.022   0.180)   0.425
 ERROR ELLIPSE: <SERR AZ DIP>-<   0.43  45 78>-<   0.17 253 10>-<   0.12 162  5>
 ------------------------------------------------------------------------------------
 YEAR MO DA  --ORIGIN--  --LAT N-  --LON W--  DEPTH-G RMS   ERH   ERZ  XMAG1 FMAG1 PMAG GEOID-DEP
 2016-10-18  0002 50.72  42 54.07   13E15.98   1.50  0.19  0.17  0.42                       1.50
                                                                                          SOURCE
 NSTA NPHS  DMIN MODEL GAP ITR NFM NWR NWS NVR REMRKS-AVH  N.XMG-XMMAD-T   N.FMG-FMMAD-T  L F X
   83   83   4.9  MODS  67   9   0  76  38  83                                                 

 XMAG2-N.XMG2-XMMAD-T-S  FMAG2-N.FMG2-FMMAD-T-S  PREF.MAG-N.PMAG-PRMAD-T DEPDAT NS ZT TYP
                                                                            834  5  G CRH
 REGION=                          

 STA NET COM L CR DIST AZM  AN P/S WT   SEC (TOBS -TCAL -DLY  =RES)  WT   SR  INFO  CAL  DUR-W-FMAG-T -AMP-U-PER-W-XMAG-T DE
 MMO1 IV EH        4.9  92 116  P     51.82  1.10  1.07 0.00  0.03  1.19     0.082                                           
        S                       S     52.88  2.16  2.30 0.00 -0.14  1.19S    0.167                                           
 MC2  IV EH        6.4 281 107  P     52.10  1.38  1.29 0.00  0.09  1.19     0.075                                           
        S                       S     53.52  2.80  2.75 0.00  0.05  1.19S    0.156                                           
 ED16 YR HH        7.9 154 102  P     52.29  1.57  1.52 0.00  0.05  1.19     0.052                                           
        S                       S     53.83  3.11  3.19 0.00 -0.08  1.19S    0.093                                           
 ED17 YR HH        8.0  25 101  P     52.19  1.47  1.53 0.00 -0.06  1.19     0.055                                           
        S                       S     53.62  2.90  3.23 0.00 -0.33  1.19S    0.112                                           
 ED18 YR HH       10.2 350  96  P     52.59  1.87  1.90 0.00 -0.03  1.19     0.043                                           
        S                       S     54.69  3.97  3.93 0.00  0.04  1.19S    0.081                                           
 ED19 YR HH       10.6 282  95  P     52.62  1.90  1.96 0.00 -0.06  1.19     0.049                                           
        S                       S     54.49  3.77  4.05 0.00 -0.28  1.19S    0.112                                           
 ED22 YR HH       12.7  22  93  P  2  52.00  1.28  2.29 0.00 -1.01* 0.00     0.000                                           
        S                       S     55.40  4.68  4.71 0.00 -0.03  1.19S    0.110                                           
 ED21 YR HH       14.3   1  92  P     53.23  2.51  2.56 0.00 -0.05  1.19     0.043                                           
        S                       S     55.64  4.92  5.23 0.00 -0.31  1.19S    0.089                                           
 NRCA IV HH       14.5 239  92  P     53.27  2.55  2.60 0.00 -0.05  1.19     0.049                                           
        S                       S  1  55.93  5.21  5.29 0.00 -0.08  0.89S    0.071                                           
 ED09 YR HH       17.1 131  91  P     53.73  3.01  3.01 0.00 -0.00  1.19     0.040                                           
        S                       S     56.52  5.80  6.10 0.00 -0.30  1.19S    0.083                                           
 ED10 YR HH       17.2 217  91  P     53.68  2.96  3.03 0.00 -0.07  1.19     0.045                                           
        S                       S     56.44  5.72  6.13 0.00 -0.41  1.07S    0.090                                           
 ED23 YR HH       17.6 174  91  P     54.11  3.39  3.11 0.00  0.28  1.19     0.036                                           
        S                       S     57.65  6.93  6.28 0.00  0.65* 0.03S    0.000                                           
 GUMA IV HH       18.8  17  91  P     54.44  3.72  3.30 0.00  0.42  1.06     0.038                                           
        S                       S  2  57.86  7.14  6.64 0.00  0.50  0.34S    0.012                                           
 FEMA IVSHN       18.9 292  76  S  2  57.39  6.67  6.68 0.00 -0.01  0.59S    0.020                                           
 CSP1 IV EH       21.8 347  91  P  2  54.80  4.08  3.78 0.00  0.30  0.59     0.009                                           
        S                       S     58.11  7.39  7.55 0.00 -0.16  1.19S    0.110                                           
 ED20 YR HH       21.8 140  91  P     54.47  3.75  3.79 0.00 -0.04  1.19     0.037                                           
        S                       S     57.92  7.20  7.58 0.00 -0.38  1.15S    0.068                                           
 ED12 YR HH       25.9 247  91  P     55.22  4.50  4.45 0.00  0.05  1.19     0.046                                           
        S                       S     59.28  8.56  8.77 0.00 -0.21  1.19S    0.083                                           
 ED24 YR HH       27.9 193  81  P     56.03  5.31  4.79 0.00  0.52* 0.57     0.005                                           
        S                       S  1  60.39  9.67  9.38 0.00  0.29  0.89S    0.032                                           
 T1299IV EH       29.7 177  81  P     56.08  5.36  5.07 0.00  0.29  1.19     0.024                                           
        S                       S     61.16 10.44  9.89 0.00  0.55* 0.39S    0.006                                           
 ED11 YR HH       30.4 219  81  P     56.12  5.40  5.18 0.00  0.22  1.19     0.030                                           
        S                       S     60.51  9.79 10.08 0.00 -0.29  1.19S    0.068                                           
 SMA1 IV EH       30.6 169  81  P     55.94  5.22  5.22 0.00 -0.00  1.19     0.025                                           
        S                       S  1  60.87 10.15 10.15 0.00 -0.00  0.89S    0.035                                           
 MNTP IV HN       31.0  32  81  P     57.07  6.35  5.28 0.00  1.07* 0.00     0.000                                           
 CESI IV HH       31.7 292  81  P  2  56.38  5.66  5.39 0.00  0.27  0.59     0.008                                           
        S                       S     61.14 10.42 10.47 0.00 -0.05  1.19S    0.098                                           
 ED03 YR HH       33.7 191  81  P     56.57  5.85  5.72 0.00  0.13  1.19     0.025                                           
        S                       S  1  61.94 11.22 11.07 0.00  0.15  0.89S    0.032                                           
 ED25 YR HH       34.3 168  81  P     56.79  6.07  5.82 0.00  0.25  1.19     0.025                                           
        S                       S     62.21 11.49 11.24 0.00  0.25  1.19S    0.063                                           
 ED07 YR HH       34.4 151  81  P  1  56.82  6.10  5.83 0.00  0.27  0.89     0.015                                           
        S                       S     61.87 11.15 11.27 0.00 -0.12  1.19S    0.081                                           
 LNSS IV HH       38.0 210  76  P     57.16  6.44  6.40 0.00  0.04  1.19     0.024                                           
        S                       S     63.16 12.44 12.31 0.00  0.13  1.19S    0.063                                           
 TERO IV HH       41.5 138  76  P  2  57.71  6.99  6.96 0.00  0.03  0.59     0.008                                           
        S                       S     63.96 13.24 13.34 0.00 -0.10  1.19S    0.102                                           
 CAMP IV HH       42.2 163  76  P     57.98  7.26  7.08 0.00  0.18  1.19     0.023                                           
        S                       S  2  64.32 13.60 13.57 0.00  0.03  0.59S    0.016                                           
 ED02 YR HH       43.1 220  76  P  1  57.88  7.16  7.21 0.00 -0.05  0.89     0.014                                           
        S                       S     64.09 13.37 13.82 0.00 -0.45  0.91S    0.040                                           
 RM33 IV EH       43.8 186  76  P  2  59.51  8.79  7.32 0.00  1.47* 0.00     0.000                                           
        S                       S     64.84 14.12 14.02 0.00  0.10  1.19S    0.057                                           
 ED01 YR HH       44.0 199  76  P  1  58.04  7.32  7.36 0.00 -0.04  0.89     0.013                                           
        S                       S     64.84 14.12 14.09 0.00  0.03  1.19S    0.059                                           
 ED05 YR HH       47.1 170  76  P  1  58.54  7.82  7.85 0.00 -0.03  0.89     0.012                                           
        S                       S     65.71 14.99 14.99 0.00 -0.00  1.19S    0.062                                           
 SNTG IV HH       47.4 327  76  P     58.59  7.87  7.90 0.00 -0.03  1.19     0.036                                           
        S                       S     65.89 15.17 15.09 0.00  0.08  1.19S    0.123                                           
 ED15 YRSHH       47.9 149  68  S  2  65.92 15.20 15.22 0.00 -0.02  0.59S    0.021                                           
 EL6  IV EH       49.4 345  76  P  1  59.38  8.66  8.21 0.00  0.45  0.71     0.014                                           
        S                       S     67.07 16.35 15.67 0.00  0.68* 0.00S    0.000                                           
 ASSB IVSHH       52.0 288  68  S     66.85 16.13 16.43 0.00 -0.30  1.19S    0.097                                           
 ED08 YRSHH       52.1 200  68  S  2  68.06 17.34 16.47 0.00  0.87* 0.00S    0.000                                           
 ED14 YR HH       52.5 164  76  P     59.45  8.73  8.70 0.00  0.03  1.19     0.023                                           
        S                       S     67.28 16.56 16.58 0.00 -0.02  1.19S    0.066                                           
 CING IV HH       53.0 354  76  P     59.78  9.06  8.78 0.00  0.28  1.19     0.045                                           
        S                       S  1  67.58 16.86 16.73 0.00  0.13  0.89S    0.090                                           
 GIGS IV HH       55.8 153  76  P  2  59.95  9.23  9.22 0.00  0.01  0.59     0.006                                           
        S                       S     68.13 17.41 17.53 0.00 -0.12  1.18S    0.077                                           
 ATCC IV EH       60.0 302  76  P  1  60.76 10.04  9.89 0.00  0.15  0.87     0.017                                           
        S                       S     69.70 18.98 18.78 0.00  0.20  1.16S    0.098                                           
 ARVD IV HH       71.4 339  76  P  2  62.79 12.07 11.69 0.00  0.38  0.52     0.007                                           
 ATSC IV EH       74.8 322  76  P     63.56 12.84 12.24 0.00  0.60* 0.13     0.000                                           
 ATFO IV HH       76.6 313  76  P     63.54 12.82 12.53 0.00  0.29  0.99     0.023                                           
 FRON IV EH       81.4 328  76  P  2  64.76 14.04 13.28 0.00  0.76* 0.00     0.000                                           
 ####################################################################################
  18 OCT 2016,  0:03  SEQUENCE NO.    8, ID NO.         0
                                                        ADJUSTMENTS (KM)
  I ORIGIN   LAT N     LON W     Z   NWR  RMS    DT    DLAT   DLON    DZ    RR NF MOD
  1 32.71  42 39.64   13E11.24  5.00  33 1.21  0.381  6.517 -1.893  0.000 6.787 3 MOD
 FREE DEPTH
  2 33.09  42 43.16   13E12.63  5.00  33 0.40 -0.485  0.211 -0.115  5.340 5.345 4 MOD
  3 32.61  42 43.27   13E12.71 10.34  33 0.33 -0.078  0.107 -0.103 -1.145 1.155 4 MOD
 BEGIN MAIN DISTANCE WEIGHTING
 BEGIN RESIDUAL WEIGHTING
  4 32.53  42 43.33   13E12.79  9.19  32 0.18  0.044 -0.022  0.379 -0.452 0.590 4 MOD
  5 32.57  42 43.32   13E12.51  8.74  30 0.14  0.022 -0.020  0.145 -0.169 0.224 4 MOD
  6 32.59  42 43.31   13E12.40  8.57  30 0.14  0.002  0.000  0.033 -0.009 0.034 4 MOD

              EIGENVALUES
     ( 5.572  0.927  0.747  0.252)
      EIGENVECTORS OF ADJUSTMENT                COVARIANCE             ERRORS
 OT  (-0.995 -0.012 -0.009 -0.098) (   0.005   0.002  -0.003  -0.045)   0.074
 LAT (-0.008  0.951  0.303 -0.062) (   0.002   0.038  -0.008  -0.026)   0.195
 LON (-0.003  0.307 -0.948  0.081) (  -0.003  -0.008   0.054   0.033)   0.233
 Z   (-0.099  0.034  0.095  0.990) (  -0.045  -0.026   0.033   0.460)   0.678
 ERROR ELLIPSE: <SERR AZ DIP>-<   0.68 233 84>-<   0.23  73  5>-<   0.19 342  2>
 ------------------------------------------------------------------------------------
 YEAR MO DA  --ORIGIN--  --LAT N-  --LON W--  DEPTH-G RMS   ERH   ERZ  XMAG1 FMAG1 PMAG GEOID-DEP
 2016-10-18  0003 32.59  42 43.31   13E12.40   7.58  0.14  0.23  0.68                       7.58
                                                                                          SOURCE
 NSTA NPHS  DMIN MODEL GAP ITR NFM NWR NWS NVR REMRKS-AVH  N.XMG-XMMAD-T   N.FMG-FMMAD-T  L F X
   33   33   7.0  MODS  41   6   0  30  18  33                                                 

 XMAG2-N.XMG2-XMMAD-T-S  FMAG2-N.FMG2-FMMAD-T-S  PREF.MAG-N.PMAG-PRMAD-T DEPDAT NS ZT TYP
                                                                            993  5  G CRH
 REGION=                          

 STA NET COM L CR DIST AZM  AN P/S WT   SEC (TOBS -TCAL -DLY  =RES)  WT   SR  INFO  CAL  DUR-W-FMAG-T -AMP-U-PER-W-XMAG-T DE
 ED23 YR HH        7.0  70 141  P     34.82  2.23  1.97 0.00  0.26  1.08     0.078                                           
        S                       S     36.87  4.28  3.92 0.00  0.36  0.62S    0.148                                           
 ED24 YR HH        7.4 190 140  P     34.71  2.12  2.01 0.00  0.11  1.08     0.056                                           
        S                       S     36.57  3.98  4.00 0.00 -0.02  1.08S    0.281                                           
 ED10 YRSHH        8.2 319 134  S     36.59  4.00  4.14 0.00 -0.14  1.08S    0.302                                           
 T1299IV EH       11.5 147 126  P     35.24  2.65  2.49 0.00  0.16  1.08     0.058                                           
        S                       S     37.54  4.95  4.90 0.00  0.05  1.08S    0.179                                           
 ED03 YR HH       13.3 186 122  P     35.35  2.76  2.71 0.00  0.05  1.08     0.070                                           
        S                       S     37.75  5.16  5.33 0.00 -0.17  1.08S    0.141                                           
 NRCA IV HH       14.5 329 120  P     35.55  2.96  2.88 0.00  0.08  1.08     0.072                                           
        S                       S     38.04  5.45  5.66 0.00 -0.21  1.08S    0.158                                           
 SMA1 IV EH       14.6 133 120  P     35.58  2.99  2.90 0.00  0.09  1.08     0.069                                           
        S                       S  1  38.28  5.69  5.68 0.00  0.01  0.81S    0.087                                           
 ED11 YR HH       14.7 256 119  P     35.50  2.91  2.90 0.00  0.01  1.08     0.096                                           
        S                       S     38.16  5.57  5.69 0.00 -0.12  1.08S    0.182                                           
 ED16 YRSHH       15.2  32 115  S  1  38.45  5.86  5.84 0.00  0.02  0.81S    0.115                                           
 ED25 YRSHH       18.1 138 110  S  2  39.50  6.91  6.61 0.00  0.30  0.48S    0.028                                           
 ED20 YR HH       19.0  80 113  P     36.06  3.47  3.51 0.00 -0.04  1.08     0.092                                           
        S                       S     38.89  6.30  6.84 0.00 -0.54* 0.00S    0.000                                           
 LNSS IV HH       19.0 226 113  P     36.34  3.75  3.52 0.00  0.23  1.08     0.123                                           
        S                       S     39.47  6.88  6.85 0.00  0.03  1.08S    0.198                                           
 ED09 YR HH       19.8  63 112  P     36.14  3.55  3.63 0.00 -0.08  1.08     0.095                                           
        S                       S     39.10  6.51  7.06 0.00 -0.55* 0.00S    0.000                                           
 ED12 YR HH       21.0 297 110  P     36.56  3.97  3.81 0.00  0.16  1.08     0.121                                           
        S                       S     39.92  7.33  7.41 0.00 -0.08  1.08S    0.189                                           
 MMO1 IVSEH       22.0  26 105  S     40.24  7.65  7.69 0.00 -0.04  1.08S    0.176                                           
 ED19 YRSHH       22.7 346 104  S  1  40.48  7.89  7.87 0.00  0.02  0.81S    0.087                                           
 ED07 YRSHH       23.6 116 103  S     40.54  7.95  8.12 0.00 -0.17  1.08S    0.177                                           
 ED17 YRSHH       28.4  17 100  S  1  41.87  9.28  9.48 0.00 -0.20  0.81S    0.104                                           
 ED18 YRSHH       30.1   5  98  S     42.71 10.12  9.98 0.00  0.14  1.08S    0.188                                           
 TERO IV HH       34.4 108 101  P  1  38.47  5.88  5.85 0.00  0.03  0.81     0.080                                           
        S                       S     43.11 10.52 11.20 0.00 -0.68* 0.00S    0.000                                           
 ED14 YRSHH       35.9 148  95  S     43.99 11.40 11.66 0.00 -0.26  1.06S    0.236                                           
 ####################################################################################
