  18 OCT 2016,  0:02  SEQUENCE NO.    6, ID NO.         0
                                                        ADJUSTMENTS (KM)
  I ORIGIN   LAT N     LON W     Z   NWR  RMS    DT    DLAT   DLON    DZ    RR NF MOD
  1 40.46  42 46.92   13E 8.17  5.00  50 0.92  1.015 -2.294 -3.365  0.000 4.072 3 MOD
 FREE DEPTH
  2 41.48  42 45.68   13E10.64  5.00  50 0.29  0.137 -0.384 -0.172 -2.277 2.315 4 MOD
  3 41.61  42 45.47   13E10.77  2.72  50 0.30 -0.058  0.246  0.127  1.433 1.460 4 MOD
 BEGIN MAIN DISTANCE WEIGHTING
 BEGIN RESIDUAL WEIGHTING
  4 41.55  42 45.61   13E10.68  4.16  47 0.18 -0.022  0.163 -0.120 -0.256 0.326 4 MOD
  5 41.53  42 45.70   13E10.76  3.90  47 0.18 -0.021  0.150 -0.020  0.205 0.255 4 MOD
  6 41.51  42 45.78   13E10.78  4.11  47 0.18  0.015 -0.082 -0.048 -0.828 0.834 4 MOD

              EIGENVALUES
     ( 7.144  1.108  0.837  0.195)
      EIGENVECTORS OF ADJUSTMENT                COVARIANCE             ERRORS
 OT  (-0.993  0.083 -0.076 -0.023) (   0.002  -0.008  -0.001  -0.025)   0.045
 LAT (-0.108 -0.470  0.871  0.094) (  -0.008   0.064  -0.009   0.100)   0.252
 LON (-0.037 -0.876 -0.480  0.021) (  -0.001  -0.009   0.041   0.024)   0.203
 Z   (-0.012  0.065 -0.074  0.995) (  -0.025   0.100   0.024   1.108)   1.053
 ERROR ELLIPSE: <SERR AZ DIP>-<   1.06 347 84>-<   0.25 209  4>-<   0.19 120  3>
 ------------------------------------------------------------------------------------
 YEAR MO DA  --ORIGIN--  --LAT N-  --LON W--  DEPTH-G RMS   ERH   ERZ  XMAG1 FMAG1 PMAG GEOID-DEP
 2016-10-18  0002 41.51  42 45.78   13E10.78   3.13  0.18  0.24  1.05                       3.13
                                                                                          SOURCE
 NSTA NPHS  DMIN MODEL GAP ITR NFM NWR NWS NVR REMRKS-AVH  N.XMG-XMMAD-T   N.FMG-FMMAD-T  L F X
   50   50   3.5  MODS 112   6   0  47  24  50                                                 

 XMAG2-N.XMG2-XMMAD-T-S  FMAG2-N.FMG2-FMMAD-T-S  PREF.MAG-N.PMAG-PRMAD-T DEPDAT NS ZT TYP
                                                                            975  5  G CRH
 REGION=                          

 STA NET COM L CR DIST AZM  AN P/S WT   SEC (TOBS -TCAL -DLY  =RES)  WT   SR  INFO  CAL  DUR-W-FMAG-T -AMP-U-PER-W-XMAG-T DE
 ED10 YR HH        3.5 297 141  P     42.46  0.95  1.07 0.00 -0.12  1.10     0.359                                           
        S                       S     43.34  1.83  2.26 0.00 -0.43  0.64S    0.388                                           
 ED23 YR HH        9.1 103 111  P     43.50  1.99  1.79 0.00  0.20  1.10     0.104                                           
        S                       S     45.56  4.05  3.68 0.00  0.37  0.95S    0.128                                           
 NRCA IV HH        9.5 326 109  P     43.38  1.87  1.85 0.00  0.02  1.10     0.117                                           
        S                       S     45.05  3.54  3.80 0.00 -0.26  1.10S    0.215                                           
 ED24 YR HH       12.0 175 102  P     43.62  2.11  2.23 0.00 -0.12  1.10     0.051                                           
        S                       S     45.76  4.25  4.53 0.00 -0.28  1.10S    0.088                                           
 ED11 YR HH       14.5 236  97  P     44.18  2.67  2.64 0.00  0.03  1.10     0.055                                           
        S                       S     46.99  5.48  5.28 0.00  0.20  1.10S    0.131                                           
 T1299IV EH       16.6 149  93  P     44.67  3.16  2.96 0.00  0.20  1.10     0.027                                           
        S                       S     47.64  6.13  5.89 0.00  0.24  1.10S    0.063                                           
 ED12 YR HH       17.3 287  92  P     44.83  3.32  3.06 0.00  0.26  1.10     0.100                                           
        S                       S     47.48  5.97  6.07 0.00 -0.10  1.10S    0.203                                           
 ED03 YR HH       17.8 177  92  P     44.67  3.16  3.15 0.00  0.01  1.10     0.030                                           
        S                       S     47.69  6.18  6.23 0.00 -0.05  1.10S    0.081                                           
 SMA1 IV EH       19.5 139  91  P     44.95  3.44  3.42 0.00  0.02  1.10     0.030                                           
        S                       S     48.41  6.90  6.72 0.00  0.18  1.10S    0.061                                           
 ED09 YR HH       20.4  78  91  P     45.06  3.55  3.56 0.00 -0.01  1.10     0.093                                           
        S                       S  1  48.31  6.80  6.99 0.00 -0.19  0.83S    0.103                                           
 ED20 YR HH       21.0  94  91  P     45.11  3.60  3.66 0.00 -0.06  1.10     0.071                                           
        S                       S     48.35  6.84  7.17 0.00 -0.33  1.07S    0.124                                           
 LNSS IV HH       21.1 213  91  P     45.27  3.76  3.68 0.00  0.08  1.10     0.047                                           
        S                       S  1  48.80  7.29  7.21 0.00  0.08  0.83S    0.065                                           
 ED25 YR HH       23.1 142  90  P     45.73  4.22  3.98 0.00  0.24  1.10     0.031                                           
        S                       S  1  49.58  8.07  7.78 0.00  0.29  0.83S    0.034                                           
 ED02 YR HH       27.1 230  90  P     46.19  4.68  4.63 0.00  0.05  1.10     0.061                                           
        S                       S     50.31  8.80  8.97 0.00 -0.17  1.10S    0.131                                           
 ED01 YR HH       27.2 196  90  P     46.30  4.79  4.64 0.00  0.15  1.10     0.040                                           
        S                       S     50.29  8.78  9.00 0.00 -0.22  1.10S    0.101                                           
 ED07 YR HH       27.8 122  90  P     46.27  4.76  4.73 0.00  0.03  1.10     0.042                                           
        S                       S  1  50.66  9.15  9.16 0.00 -0.01  0.83S    0.041                                           
 RM33 IVSEH       28.4 174  90  S     50.76  9.25  9.33 0.00 -0.08  1.10S    0.078                                           
 CAMP IV HH       31.5 143  90  P     46.88  5.37  5.31 0.00  0.06  1.10     0.031                                           
        S                       S     51.34  9.83 10.24 0.00 -0.41  0.75S    0.028                                           
 ED05 YR HH       34.6 153  90  P     47.45  5.94  5.80 0.00  0.14  1.10     0.029                                           
        S                       S     52.68 11.17 11.15 0.00  0.02  1.10S    0.063                                           
 CESI IVSHH       35.0 321  90  S  2  52.84 11.33 11.29 0.00  0.04  0.55S    0.070                                           
 ED08 YR HH       35.3 197  90  P  2  46.88  5.37  5.92 0.00 -0.55* 0.02     0.000                                           
 TERO IV HH       38.1 113  90  P     47.82  6.31  6.36 0.00 -0.05  1.10     0.050                                           
        S                       S     53.44 11.93 12.19 0.00 -0.26  1.10S    0.088                                           
 ED15 YR HH       40.6 129  90  P     48.15  6.64  6.76 0.00 -0.12  1.10     0.037                                           
        S                       S  2  54.04 12.53 12.91 0.00 -0.38  0.45S    0.011                                           
 ED14 YR HH       41.0 149  90  P     48.31  6.80  6.82 0.00 -0.02  1.10     0.029                                           
        S                       S     54.28 12.77 13.04 0.00 -0.27  1.10S    0.061                                           
 OFFI IV HH       45.6  65  90  P     50.29  8.78  7.55 0.00  1.23* 0.00     0.000                                           
 GIGS IV HH       47.2 136  90  P     49.31  7.80  7.80 0.00 -0.00  1.10     0.033                                           
        S                       S     55.63 14.12 14.85 0.00 -0.73* 0.00S    0.000                                           
 FIAM IVSHH       55.2 186  90  S  2  58.42 16.91 17.21 0.00 -0.30  0.55S    0.022                                           
 ATCC IV EH       64.3 317  90  P     52.28 10.77 10.52 0.00  0.25  1.05     0.132                                           
 ####################################################################################
