# 2016 10 18  0  0 13.09  42.8978   13.2522    0.95  0.00  0.66  1.37  0.14    100001 E
IVMC2         1.050   1.000   P EH 
IVMC2         2.260   1.000   S EH 
IVMMO1        1.210   1.000   P EH 
IVMMO1        2.580   1.000   S EH 
YRED17        1.920   1.000   P HH 
YRED17        3.370   1.000   S HH 
YRED18        2.080   1.000   P HH 
YRED18        4.100   1.000   S HH 
YRED21        5.150   1.000   S HH 
YRED20        7.370   1.000   S HH 
# 2016 10 18  0  0 31.06  42.7953   13.1397   -0.60  0.00  0.55  1.31  0.38    100002 E
YRED10        0.170   1.000   P HH 
YRED10        0.720   1.000   S HH 
IVNRCA        0.970   1.000   P HH 
IVNRCA        1.750   1.000   S HH 
YRED12        3.000   1.000   P HH 
YRED12        5.060   1.000   S HH 
YRED23        6.760   1.000   S HH 
IVMC2         5.530   1.000   S EH 
YRED19        1.680   1.000   P HH 
YRED19        5.650   1.000   S HH 
YRED11        2.700   1.000   P HH 
YRED11        5.660   1.000   S HH 
YRED24        2.690   1.000   P HH 
YRED24        5.530   1.000   S HH 
IVMMO1        3.370   1.000   P EH 
IVMMO1        7.380   1.000   S EH 
IVT1299       4.750   1.000   P EH 
IVT1299       8.140   1.000   S EH 
YRED18        4.970   1.000   P HH 
YRED18        8.410   1.000   S HH 
YRED17        4.090   1.000   P HH 
YRED17        8.090   1.000   S HH 
YRED20        8.980   1.000   S HH 
YRED21        4.170   1.000   P HH 
YRED21        9.620   1.000   S HH 
# 2016 10 18  0  0 55.47  42.7493   13.1820    4.85  0.00  0.31  1.18  0.13    100003 E
YRED10        1.470   1.000   P HH 
YRED23        1.980   1.000   P HH 
YRED23        3.880   1.000   S HH 
YRED24        2.020   1.000   P HH 
YRED24        4.040   1.000   S HH 
IVNRCA        2.220   1.000   P HH 
IVNRCA        4.200   1.000   S HH 
YRED11        2.910   1.000   P HH 
YRED11        5.260   1.000   S HH 
IVMC2         6.970   1.000   S EH 
IVMMO1        4.090   1.000   P EH 
IVMMO1        7.020   1.000   S EH 
YRED20        3.350   1.000   P HH 
YRED20        6.330   1.000   S HH 
YRED17        4.630   1.000   P HH 
YRED17        8.600   1.000   S HH 
# 2016 10 18  0  1 43.86  42.8367   13.1695    3.29  0.00  0.16  0.65  0.14    100004 E
IVNRCA        1.260   1.000   P HH 
IVNRCA        2.340   1.000   S HH 
YRED10        1.530   1.000   P HH 
YRED10        2.900   1.000   S HH 
IVMC2         1.920   1.000   P EH 
IVMC2         3.970   1.000   S EH 
YRED19        1.960   1.000   P HH 
YRED19        3.730   1.000   S HH 
YRED16        2.310   1.000   P HH 
YRED16        4.620   1.000   S HH 
YRED23        2.880   1.000   P HH 
YRED23        5.740   1.000   S HH 
IVMMO1        2.730   1.000   P EH 
IVMMO1        5.280   1.000   S EH 
YRED12        2.830   1.000   P HH 
YRED12        5.460   1.000   S HH 
YRED18        3.310   1.000   P HH 
YRED18        6.330   1.000   S HH 
YRED17        3.250   1.000   P HH 
YRED17        6.050   1.000   S HH 
YRED11        3.450   1.000   P HH 
YRED11        6.930   1.000   S HH 
YRED24        3.590   1.000   P HH 
YRED24        7.040   1.000   S HH 
YRED09        3.700   1.000   P HH 
YRED09        7.140   1.000   S HH 
YRED22        4.130   1.000   P HH 
YRED22        7.530   1.000   S HH 
YRED21        4.030   1.000   P HH 
YRED21        7.660   1.000   S HH 
YRED20        4.050   1.000   P HH 
YRED20        7.710   1.000   S HH 
IVSMA1        8.580   1.000   S EH 
IVLNSS        4.880   1.000   P HH 
IVLNSS        9.340   1.000   S HH 
IVCSP1        4.960   1.000   P EH 
IVCESI        4.900   1.000   P HH 
IVCESI        9.350   1.000   S HH 
YRED02        6.160   1.000   P HH 
YRED02       10.110   1.000   S HH 
YRED07        5.720   1.000   P HH 
YRED07       10.740   1.000   S HH 
YRED01        6.040   1.000   P HH 
YRED01       11.180   1.000   S HH 
IVRM33       11.840   1.000   S EH 
IVCAMP        6.920   1.000   P HH 
IVCAMP       12.000   1.000   S HH 
YRED05       13.510   1.000   S HH 
IVTERO        7.080   1.000   P HH 
IVTERO       13.260   1.000   S HH 
YRED15       14.010   1.000   S HH 
IVASSB        7.720   1.000   P HH 
YRED14       15.140   1.000   S HH 
IVFIAM       10.380   1.000   P HH 
# 2016 10 18  0  2  8.89  42.7115   13.2358    5.44  0.00  1.25  4.60  0.92    100005 E
YRED24        2.460   1.000   P HH 
IVT1299       3.020   1.000   P EH 
IVT1299       3.860   1.000   S EH 
IVSMA1        2.990   1.000   P EH 
IVSMA1        3.950   1.000   S EH 
YRED03        2.180   1.000   P HH 
YRED03        3.660   1.000   S HH 
YRED16        3.960   1.000   P HH 
YRED16        5.290   1.000   S HH 
YRED25        3.470   1.000   P HH 
YRED25        4.870   1.000   S HH 
YRED04        3.620   1.000   P HH 
YRED04        5.120   1.000   S HH 
IVNRCA        6.170   1.000   S HH 
YRED20        4.800   1.000   P HH 
YRED20        7.290   1.000   S HH 
YRED09        8.030   1.000   S HH 
YRED07        4.350   1.000   P HH 
YRED07        6.740   1.000   S HH 
IVMMO1        4.730   1.000   P EH 
IVMMO1        6.600   1.000   S EH 
IVMC2         3.750   1.000   P EH 
IVMC2         6.570   1.000   S EH 
IVRM33        4.780   1.000   P EH 
IVRM33        7.910   1.000   S EH 
YRED12        3.100   1.000   P HH 
YRED12        9.640   1.000   S HH 
YRED01        3.410   1.000   P HH 
YRED01        9.530   1.000   S HH 
IVCAMP        4.800   1.000   P HH 
IVCAMP        6.800   1.000   S HH 
YRED19        5.060   1.000   P HH 
YRED19        7.200   1.000   S HH 
YRED05        5.430   1.000   P HH 
YRED05        8.550   1.000   S HH 
YRED17        5.540   1.000   P HH 
YRED17        8.180   1.000   S HH 
YRED18        5.950   1.000   P HH 
YRED18        8.910   1.000   S HH 
IVTERO        6.130   1.000   P HH 
IVTERO        9.700   1.000   S HH 
YRED22       10.350   1.000   S HH 
YRED14        6.470   1.000   P HH 
YRED14       10.060   1.000   S HH 
YRED21        7.150   1.000   P HH 
YRED21       10.430   1.000   S HH 
# 2016 10 18  0  2 41.52  42.7618   13.1797    3.27  0.00  0.25  1.14  0.18    100006 E
YRED10        0.940   1.000   P HH 
YRED10        1.820   1.000   S HH 
YRED23        1.980   1.000   P HH 
YRED23        4.040   1.000   S HH 
IVNRCA        1.860   1.000   P HH 
IVNRCA        3.530   1.000   S HH 
YRED24        2.100   1.000   P HH 
YRED24        4.240   1.000   S HH 
YRED11        2.660   1.000   P HH 
YRED11        5.470   1.000   S HH 
IVT1299       3.150   1.000   P EH 
IVT1299       6.120   1.000   S EH 
YRED12        3.310   1.000   P HH 
YRED12        5.960   1.000   S HH 
YRED03        3.150   1.000   P HH 
YRED03        6.170   1.000   S HH 
IVSMA1        3.430   1.000   P EH 
IVSMA1        6.890   1.000   S EH 
YRED09        3.540   1.000   P HH 
YRED09        6.790   1.000   S HH 
YRED20        3.590   1.000   P HH 
YRED20        6.830   1.000   S HH 
IVLNSS        3.750   1.000   P HH 
IVLNSS        7.280   1.000   S HH 
YRED25        4.210   1.000   P HH 
YRED25        8.060   1.000   S HH 
YRED02        4.670   1.000   P HH 
YRED02        8.790   1.000   S HH 
YRED01        4.780   1.000   P HH 
YRED01        8.770   1.000   S HH 
YRED07        4.750   1.000   P HH 
YRED07        9.140   1.000   S HH 
IVRM33        9.240   1.000   S EH 
IVCAMP        5.360   1.000   P HH 
IVCAMP        9.820   1.000   S HH 
YRED05        5.930   1.000   P HH 
YRED05       11.160   1.000   S HH 
IVCESI       11.320   1.000   S HH 
YRED08        5.360   1.000   P HH 
IVTERO        6.300   1.000   P HH 
IVTERO       11.920   1.000   S HH 
YRED15        6.630   1.000   P HH 
YRED15       12.520   1.000   S HH 
YRED14        6.790   1.000   P HH 
YRED14       12.760   1.000   S HH 
IVOFFI        8.770   1.000   P HH 
IVGIGS        7.790   1.000   P HH 
IVGIGS       14.110   1.000   S HH 
IVFIAM       11.000   1.000   P HH 
IVFIAM       16.900   1.000   S HH 
IVATCC       10.760   1.000   P EH 
# 2016 10 18  0  2 50.73  42.9010   13.2660    1.48  0.00  0.18  0.45  0.20    100007 E
IVMMO1        1.090   1.000   P EH 
IVMMO1        2.150   1.000   S EH 
IVMC2         1.370   1.000   P EH 
IVMC2         2.790   1.000   S EH 
YRED16        1.560   1.000   P HH 
YRED16        3.100   1.000   S HH 
YRED17        1.460   1.000   P HH 
YRED17        2.890   1.000   S HH 
YRED18        1.860   1.000   P HH 
YRED18        3.960   1.000   S HH 
YRED19        1.890   1.000   P HH 
YRED19        3.760   1.000   S HH 
YRED22        1.270   1.000   P HH 
YRED22        4.670   1.000   S HH 
YRED21        2.500   1.000   P HH 
YRED21        4.910   1.000   S HH 
IVNRCA        2.540   1.000   P HH 
IVNRCA        5.200   1.000   S HH 
YRED09        3.000   1.000   P HH 
YRED09        5.790   1.000   S HH 
YRED10        2.950   1.000   P HH 
YRED10        5.710   1.000   S HH 
YRED23        3.380   1.000   P HH 
YRED23        6.920   1.000   S HH 
IVGUMA        3.710   1.000   P HH 
IVGUMA        7.130   1.000   S HH 
IVFEMA        6.660   1.000   S HN 
IVCSP1        4.070   1.000   P EH 
IVCSP1        7.380   1.000   S EH 
YRED20        3.740   1.000   P HH 
YRED20        7.190   1.000   S HH 
YRED12        4.490   1.000   P HH 
YRED12        8.550   1.000   S HH 
YRED24        5.300   1.000   P HH 
YRED24        9.660   1.000   S HH 
IVT1299       5.350   1.000   P EH 
IVT1299      10.430   1.000   S EH 
YRED11        5.390   1.000   P HH 
YRED11        9.780   1.000   S HH 
IVSMA1        5.210   1.000   P EH 
IVSMA1       10.140   1.000   S EH 
IVMNTP        6.340   1.000   P HN 
IVCESI        5.650   1.000   P HH 
IVCESI       10.410   1.000   S HH 
YRED03        5.840   1.000   P HH 
YRED03       11.210   1.000   S HH 
YRED25        6.060   1.000   P HH 
YRED25       11.480   1.000   S HH 
YRED07        6.090   1.000   P HH 
YRED07       11.140   1.000   S HH 
IVLNSS        6.430   1.000   P HH 
IVLNSS       12.430   1.000   S HH 
IVTERO        6.980   1.000   P HH 
IVTERO       13.230   1.000   S HH 
IVCAMP        7.250   1.000   P HH 
IVCAMP       13.590   1.000   S HH 
YRED02        7.150   1.000   P HH 
YRED02       13.360   1.000   S HH 
IVRM33        8.780   1.000   P EH 
IVRM33       14.110   1.000   S EH 
YRED01        7.310   1.000   P HH 
YRED01       14.110   1.000   S HH 
YRED05        7.810   1.000   P HH 
YRED05       14.980   1.000   S HH 
IVSNTG        7.860   1.000   P HH 
IVSNTG       15.160   1.000   S HH 
YRED15       15.190   1.000   S HH 
IVEL6         8.650   1.000   P EH 
IVEL6        16.340   1.000   S EH 
IVASSB        7.070   1.000   P HH 
IVASSB       16.120   1.000   S HH 
YRED08       17.330   1.000   S HH 
YRED14        8.720   1.000   P HH 
YRED14       16.550   1.000   S HH 
IVCING        9.050   1.000   P HH 
IVCING       16.850   1.000   S HH 
IVGIGS        9.220   1.000   P HH 
IVGIGS       17.400   1.000   S HH 
IVATCC       10.030   1.000   P EH 
IVATCC       18.970   1.000   S EH 
IVARVD       12.060   1.000   P HH 
IVATSC       12.830   1.000   P EH 
IVATFO       12.810   1.000   P HH 
IVFRON       14.030   1.000   P EH 
# 2016 10 18  0  3 32.59  42.7218   13.2067    7.58  0.00  0.23  0.68  0.14    100008 E
YRED23        2.230   1.000   P HH 
YRED23        4.280   1.000   S HH 
YRED24        2.120   1.000   P HH 
YRED24        3.980   1.000   S HH 
YRED10        4.000   1.000   S HH 
IVT1299       2.650   1.000   P EH 
IVT1299       4.950   1.000   S EH 
YRED03        2.760   1.000   P HH 
YRED03        5.160   1.000   S HH 
IVNRCA        2.960   1.000   P HH 
IVNRCA        5.450   1.000   S HH 
IVSMA1        2.990   1.000   P EH 
IVSMA1        5.690   1.000   S EH 
YRED11        2.910   1.000   P HH 
YRED11        5.570   1.000   S HH 
YRED16        5.860   1.000   S HH 
YRED25        6.910   1.000   S HH 
YRED20        3.470   1.000   P HH 
YRED20        6.300   1.000   S HH 
IVLNSS        3.750   1.000   P HH 
IVLNSS        6.880   1.000   S HH 
YRED09        3.550   1.000   P HH 
YRED09        6.510   1.000   S HH 
YRED12        3.970   1.000   P HH 
YRED12        7.330   1.000   S HH 
IVMMO1        7.650   1.000   S EH 
YRED19        7.890   1.000   S HH 
YRED07        7.950   1.000   S HH 
YRED17        9.280   1.000   S HH 
YRED18       10.120   1.000   S HH 
IVTERO        5.880   1.000   P HH 
IVTERO       10.520   1.000   S HH 
YRED14       11.400   1.000   S HH 
# 2016 10 18  0  3 47.84  42.7550   13.2000    4.23  0.00  0.34  1.15  0.20    100009 E
YRED10        1.580   1.000   P HH 
YRED10        2.740   1.000   S HH 
YRED23        2.120   1.000   P HH 
YRED23        4.120   1.000   S HH 
YRED24        2.260   1.000   P HH 
YRED24        4.170   1.000   S HH 
IVNRCA        4.250   1.000   S HH 
YRED11        2.810   1.000   P HH 
YRED11        5.500   1.000   S HH 
YRED03        3.150   1.000   P HH 
YRED03        5.830   1.000   S HH 
YRED19        5.110   1.000   P HH 
YRED19        6.330   1.000   S HH 
YRED12        3.680   1.000   P HH 
YRED12        6.550   1.000   S HH 
YRED20        3.470   1.000   P HH 
YRED20        6.490   1.000   S HH 
IVLNSS        3.860   1.000   P HH 
IVLNSS        7.160   1.000   S HH 
IVTERO        6.260   1.000   P HH 
IVTERO       11.440   1.000   S HH 
IVVCEL       13.260   1.000   P EH 
# 2016 10 18  0  4  1.42  42.9013   13.2660    1.99  0.00  0.27  0.58  0.21    100010 E
IVMMO1        1.160   1.000   P EH 
IVMMO1        2.220   1.000   S EH 
IVMC2         1.470   1.000   P EH 
IVMC2         2.860   1.000   S EH 
YRED16        1.650   1.000   P HH 
YRED16        3.170   1.000   S HH 
YRED17        1.520   1.000   P HH 
YRED17        2.960   1.000   S HH 
YRED18        1.930   1.000   P HH 
YRED18        4.020   1.000   S HH 
YRED19        1.950   1.000   P HH 
YRED19        3.820   1.000   S HH 
YRED22        2.490   1.000   P HH 
YRED22        4.840   1.000   S HH 
YRED21        2.600   1.000   P HH 
YRED21        4.990   1.000   S HH 
IVNRCA        2.210   1.000   P HH 
YRED09        3.140   1.000   P HH 
YRED09        5.940   1.000   S HH 
YRED10        3.020   1.000   P HH 
YRED10        5.740   1.000   S HH 
YRED23        3.610   1.000   P HH 
YRED23        7.040   1.000   S HH 
IVCSP1        4.270   1.000   P EH 
IVCSP1        7.470   1.000   S EH 
YRED20        3.800   1.000   P HH 
YRED20        7.270   1.000   S HH 
YRED24        4.960   1.000   P HH 
YRED24       10.180   1.000   S HH 
YRED11       10.200   1.000   S HH 
YRED03        6.380   1.000   P HH 
YRED03       11.290   1.000   S HH 
IVLNSS       12.480   1.000   S HH 
IVTERO        8.400   1.000   P HH 
IVTERO       13.400   1.000   S HH 
# 2016 10 18  0  4 22.49  42.7470   13.1935    3.38  0.00  0.22  0.86  0.14    100011 E
YRED10        1.350   1.000   P HH 
YRED10        2.610   1.000   S HH 
YRED23        1.940   1.000   P HH 
YRED23        3.940   1.000   S HH 
YRED24        2.020   1.000   P HH 
YRED24        3.950   1.000   S HH 
IVNRCA        2.220   1.000   P HH 
IVNRCA        4.150   1.000   S HH 
YRED16        5.170   1.000   S HH 
YRED11        2.790   1.000   P HH 
YRED11        5.150   1.000   S HH 
YRED03        2.930   1.000   P HH 
YRED03        5.640   1.000   S HH 
IVMC2         2.210   1.000   P EH 
YRED12        3.500   1.000   P HH 
YRED12        6.600   1.000   S HH 
YRED19        6.920   1.000   S HH 
YRED09        3.410   1.000   P HH 
YRED09        6.520   1.000   S HH 
YRED20        3.300   1.000   P HH 
YRED20        6.300   1.000   S HH 
IVMMO1        3.620   1.000   P EH 
IVMMO1        6.920   1.000   S EH 
IVLNSS        7.090   1.000   S HH 
YRED17        4.540   1.000   P HH 
YRED17        8.580   1.000   S HH 
YRED05       11.030   1.000   S HH 
IVTERO        5.940   1.000   P HH 
# 2016 10 18  0  4 28.81  42.5873   13.3198    3.41  0.00  0.38  0.62  0.13    100012 E
YRED04        1.020   1.000   P HH 
YRED04        2.000   1.000   S HH 
YRED25        1.150   1.000   P HH 
YRED25        2.390   1.000   S HH 
IVSMA1        1.420   1.000   P EH 
IVSMA1        2.800   1.000   S EH 
IVT1299       1.420   1.000   P EH 
IVT1299       2.810   1.000   S EH 
YRED05        2.380   1.000   P HH 
IVRM33        3.620   1.000   P EH 
IVRM33        4.710   1.000   S EH 
YRED07        2.380   1.000   P HH 
YRED07        4.510   1.000   S HH 
IVTERO        4.190   1.000   P HH 
IVFIAM        7.260   1.000   P HH 
# 2016 10 18  0  4 37.23  42.5975   13.3150    6.14  0.00  0.58  0.76  0.15    100013 E
YRED25        1.520   1.000   P HH 
YRED25        2.790   1.000   S HH 
IVSMA1        3.270   1.000   S EH 
IVT1299       1.850   1.000   P EH 
IVT1299       3.210   1.000   S EH 
YRED07        2.750   1.000   P HH 
YRED07        4.900   1.000   S HH 
YRED05        3.090   1.000   P HH 
YRED05        5.090   1.000   S HH 
IVMMO1        5.490   1.000   P EH 
YRED12       11.550   1.000   S HH 
# 2016 10 18  0  4 53.86  42.6375   13.1368   -0.87  0.00  1.31  3.19  0.91    100014 E
YRED24       -0.130   1.000   P HH 
YRED03        0.600   1.000   P HH 
YRED03        2.730   1.000   S HH 
IVLNSS        1.120   1.000   P HH 
IVLNSS        3.970   1.000   S HH 
YRED11        0.440   1.000   P HH 
YRED01        1.760   1.000   P HH 
YRED01        5.140   1.000   S HH 
YRED10        3.980   1.000   P HH 
YRED10        4.980   1.000   S HH 
YRED23        4.940   1.000   P HH 
YRED23        6.940   1.000   S HH 
YRED08        1.040   1.000   P HH 
YRED08        4.160   1.000   S HH 
YRED12        4.650   1.000   P HH 
YRED12        9.140   1.000   S HH 
YRED20        5.240   1.000   P HH 
YRED20        9.700   1.000   S HH 
YRED09        5.520   1.000   P HH 
YRED19        7.010   1.000   P HH 
YRED19        9.680   1.000   S HH 
IVMMO1        6.560   1.000   P EH 
IVMMO1       10.010   1.000   S EH 
# 2016 10 18  0  5 18.15  42.5132   13.2505    2.68  0.00  0.18  0.39  0.11    100015 E
IVRM33        1.030   1.000   P EH 
IVRM33        1.970   1.000   S EH 
YRED06        1.350   1.000   P HH 
YRED06        2.670   1.000   S HH 
YRED04        1.620   1.000   P HH 
YRED04        3.310   1.000   S HH 
YRED05        1.850   1.000   P HH 
YRED05        3.750   1.000   S HH 
YRED03        2.110   1.000   P HH 
YRED03        4.200   1.000   S HH 
YRED25        2.360   1.000   P HH 
YRED25        4.810   1.000   S HH 
YRED01        2.510   1.000   P HH 
YRED01        5.010   1.000   S HH 
IVT1299       2.560   1.000   P EH 
IVT1299       5.020   1.000   S EH 
IVSMA1        2.790   1.000   P EH 
IVSMA1        5.480   1.000   S EH 
YRED24        2.970   1.000   P HH 
YRED24        5.670   1.000   S HH 
YRED14        2.900   1.000   P HH 
YRED14        5.930   1.000   S HH 
YRED07        3.850   1.000   P HH 
YRED07        7.150   1.000   S HH 
IVTERO        5.370   1.000   P HH 
IVTERO        9.790   1.000   S HH 
YRED12       12.350   1.000   S HH 
# 2016 10 18  0  5 31.98  42.8023   13.2608   10.78  0.00  1.32  2.51  0.78    100016 E
YRED16        3.470   1.000   P HH 
YRED16        4.990   1.000   S HH 
YRED23        3.400   1.000   P HH 
YRED23        5.460   1.000   S HH 
IVMMO1        3.690   1.000   P EH 
IVMMO1        5.210   1.000   S EH 
IVNRCA        4.020   1.000   P HH 
IVNRCA        5.820   1.000   S HH 
IVMC2         3.450   1.000   P EH 
IVMC2         4.890   1.000   S EH 
YRED20        6.920   1.000   S HH 
YRED19        3.850   1.000   P HH 
YRED19        5.570   1.000   S HH 
YRED24        3.700   1.000   P HH 
YRED24        5.880   1.000   S HH 
YRED17        4.250   1.000   P HH 
YRED17        6.410   1.000   S HH 
IVT1299       3.850   1.000   P EH 
IVT1299       6.110   1.000   S EH 
IVSMA1        4.010   1.000   P EH 
IVSMA1        6.430   1.000   S EH 
YRED18        2.800   1.000   P HH 
YRED18        6.900   1.000   S HH 
YRED03        4.240   1.000   P HH 
YRED03        6.870   1.000   S HH 
YRED12        9.570   1.000   S HH 
YRED22        8.330   1.000   S HH 
YRED21        3.690   1.000   P HH 
YRED21        8.170   1.000   S HH 
YRED07        5.060   1.000   P HH 
YRED07        8.350   1.000   S HH 
IVTERO        6.440   1.000   P HH 
IVTERO       11.540   1.000   S HH 
YRED05        6.980   1.000   P HH 
YRED05       10.770   1.000   S HH 
YRED14        7.010   1.000   P HH 
