# 2016 10 18  0  5 48.59  42.7640   13.1573   -0.54  0.00  0.32  0.69  0.23    100017 E
YRED10        0.470   1.000   P HH 
YRED10        0.890   1.000   S HH 
IVNRCA        1.630   1.000   P HH 
IVNRCA        3.220   1.000   S HH 
YRED23        2.880   1.000   P HH 
YRED24        2.240   1.000   P HH 
YRED24        4.730   1.000   S HH 
YRED11        3.310   1.000   P HH 
YRED11        4.990   1.000   S HH 
YRED16        5.770   1.000   S HH 
YRED12        3.000   1.000   P HH 
YRED12        5.720   1.000   S HH 
IVMC2         4.750   1.000   P EH 
IVMC2         6.570   1.000   S EH 
IVT1299       3.730   1.000   P EH 
IVMMO1        3.730   1.000   P EH 
IVMMO1        7.320   1.000   S EH 
YRED20        7.690   1.000   S HH 
YRED17        4.650   1.000   P HH 
YRED17        8.390   1.000   S HH 
YRED07        7.320   1.000   P HH 
YRED07       10.000   1.000   S HH 
IVTERO        8.880   1.000   P HH 
# 2016 10 18  0  6  8.11  42.6225   13.3155    3.97  0.00  0.35  0.53  0.17    100018 E
IVSMA1        1.260   1.000   P EH 
IVSMA1        2.420   1.000   S EH 
IVT1299       1.150   1.000   P EH 
IVT1299       2.260   1.000   S EH 
YRED25        1.310   1.000   P HH 
YRED25        2.560   1.000   S HH 
YRED04        1.430   1.000   P HH 
YRED04        2.450   1.000   S HH 
YRED03        2.110   1.000   P HH 
YRED03        3.750   1.000   S HH 
YRED24        2.280   1.000   P HH 
YRED24        4.360   1.000   S HH 
YRED07        2.420   1.000   P HH 
YRED07        4.550   1.000   S HH 
YRED23        2.730   1.000   P HH 
YRED05        3.190   1.000   P HH 
YRED05        5.620   1.000   S HH 
YRED20        3.040   1.000   P HH 
YRED20        5.740   1.000   S HH 
IVTERO        4.370   1.000   P HH 
IVTERO        7.960   1.000   S HH 
YRED11        4.210   1.000   S HH 
IVNRCA        3.120   1.000   P HH 
IVMC2         7.990   1.000   S EH 
IVFIAM        8.270   1.000   P HH 
# 2016 10 18  0  6 20.06  42.6462   13.1203    5.37  0.00  4.30 17.01  1.01    100019 E
IVT1299       4.260   1.000   P EH 
IVT1299       5.680   1.000   S EH 
IVSMA1        4.280   1.000   P EH 
IVSMA1        5.660   1.000   S EH 
YRED25        3.990   1.000   P HH 
YRED25        5.260   1.000   S HH 
IVNRCA        6.530   1.000   S HH 
YRED12        2.690   1.000   P HH 
YRED12        3.820   1.000   S HH 
YRED05        5.600   1.000   P HH 
YRED05        7.580   1.000   S HH 
YRED07        5.210   1.000   P HH 
IVMC2        10.030   1.000   S EH 
# 2016 10 18  0  6 23.87  42.7840   13.2002   -0.75  0.00  1.33  3.11  0.59    100020 E
YRED10        0.420   1.000   P HH 
YRED10        0.860   1.000   S HH 
IVNRCA        1.410   1.000   P HH 
IVMC2         4.310   1.000   P EH 
YRED24        2.360   1.000   P HH 
YRED24        5.690   1.000   S HH 
YRED11        4.050   1.000   P HH 
YRED11        6.610   1.000   S HH 
YRED12        4.280   1.000   P HH 
YRED20        7.790   1.000   S HH 
# 2016 10 18  0  6 35.36  42.8353   13.2057    3.88  0.00  2.35 13.32  1.03    100021 E
IVNRCA        1.530   1.000   P HH 
IVNRCA        2.150   1.000   S HH 
IVMC2         2.220   1.000   P EH 
IVMC2         2.830   1.000   S EH 
YRED19        1.640   1.000   P HH 
YRED19        3.290   1.000   S HH 
IVMMO1        1.320   1.000   P EH 
IVMMO1        2.860   1.000   S EH 
YRED24        6.910   1.000   S HH 
YRED20        4.660   1.000   P HH 
YRED20        6.610   1.000   S HH 
IVT1299       5.440   1.000   P EH 
IVT1299       6.490   1.000   S EH 
IVSMA1        7.240   1.000   S EH 
YRED03        4.960   1.000   P HH 
YRED03        6.140   1.000   S HH 
YRED25        5.740   1.000   P HH 
YRED25        7.730   1.000   S HH 
# 2016 10 18  0  6 53.50  42.9188   13.2623    3.24  0.00  0.30  0.91  0.14    100022 E
IVMMO1        1.430   1.000   P EH 
IVMMO1        2.630   1.000   S EH 
IVMC2         1.530   1.000   P EH 
IVMC2         2.830   1.000   S EH 
YRED17        1.400   1.000   P HH 
YRED17        2.580   1.000   S HH 
YRED18        1.750   1.000   P HH 
YRED18        3.380   1.000   S HH 
YRED19        2.090   1.000   P HH 
YRED19        3.810   1.000   S HH 
YRED22        2.320   1.000   P HH 
YRED22        4.230   1.000   S HH 
YRED21        2.530   1.000   P HH 
YRED21        4.450   1.000   S HH 
IVNRCA        2.270   1.000   P HH 
IVNRCA        5.470   1.000   S HH 
YRED20        7.860   1.000   S HH 
YRED24        4.950   1.000   P HH 
YRED03        5.060   1.000   P HH 
# 2016 10 18  0  7 17.82  42.7782   13.2663    6.00  0.00  2.33  9.89  0.82    100023 E
YRED10        2.900   1.000   P HH 
YRED10        5.840   1.000   S HH 
IVNRCA        3.620   1.000   P HH 
IVNRCA        5.220   1.000   S HH 
IVMMO1        3.890   1.000   P EH 
IVMMO1        5.360   1.000   S EH 
YRED24        4.890   1.000   S HH 
IVMC2         4.410   1.000   P EH 
IVMC2         5.220   1.000   S EH 
YRED19        3.810   1.000   P HH 
YRED19        5.470   1.000   S HH 
YRED03        3.860   1.000   P HH 
YRED03        5.940   1.000   S HH 
YRED17        6.770   1.000   S HH 
YRED18        4.640   1.000   P HH 
YRED18        7.380   1.000   S HH 
YRED05        6.480   1.000   P HH 
# 2016 10 18  0  7 26.50  42.6468   13.3150    4.29  0.00  0.18  0.39  0.13    100024 E
IVSMA1        1.240   1.000   P EH 
IVSMA1        2.320   1.000   S EH 
IVT1299       1.290   1.000   P EH 
IVT1299       2.470   1.000   S EH 
YRED25        1.650   1.000   P HH 
YRED25        3.180   1.000   S HH 
YRED04        1.810   1.000   P HH 
YRED04        3.450   1.000   S HH 
YRED24        2.210   1.000   P HH 
YRED24        4.220   1.000   S HH 
YRED23        2.290   1.000   P HH 
YRED23        4.330   1.000   S HH 
YRED03        2.210   1.000   P HH 
YRED03        4.250   1.000   S HH 
YRED07        2.470   1.000   P HH 
YRED07        4.620   1.000   S HH 
IVCAMP        2.690   1.000   P HH 
IVCAMP        5.030   1.000   S HH 
YRED20        2.670   1.000   P HH 
YRED20        4.920   1.000   S HH 
IVRM33        3.340   1.000   P EH 
IVRM33        6.200   1.000   S EH 
YRED05        3.400   1.000   P HH 
YRED05        6.540   1.000   S HH 
YRED09        3.280   1.000   P HH 
YRED09        6.140   1.000   S HH 
YRED10        3.690   1.000   P HH 
YRED10        6.790   1.000   S HH 
YRED16        3.850   1.000   P HH 
YRED16        7.360   1.000   S HH 
YRED01        4.100   1.000   P HH 
YRED01        7.470   1.000   S HH 
YRED11        7.580   1.000   S HH 
IVTERO        4.210   1.000   P HH 
IVTERO        7.820   1.000   S HH 
YRED15        4.530   1.000   P HH 
YRED15        8.100   1.000   S HH 
YRED14        4.360   1.000   P HH 
YRED14        8.040   1.000   S HH 
IVNRCA        4.540   1.000   P HH 
IVNRCA        8.440   1.000   S HH 
YRED12       10.400   1.000   S HH 
YRED19        5.600   1.000   P HH 
YRED19       10.670   1.000   S HH 
YRED17        5.920   1.000   P HH 
YRED17       11.540   1.000   S HH 
YRED18        6.530   1.000   P HH 
YRED18       12.820   1.000   S HH 
YRED21        7.130   1.000   P HH 
# 2016 10 18  0  7 52.92  42.8225   13.0538   -1.00  0.00  1.04  1.62  0.52    100025 E
IVNRCA        0.470   1.000   P HH 
IVNRCA        1.560   1.000   S HH 
YRED12        1.120   1.000   P HH 
YRED12        3.360   1.000   S HH 
YRED10        1.160   1.000   P HH 
YRED10        2.560   1.000   S HH 
YRED19        2.520   1.000   P HH 
YRED19        4.540   1.000   S HH 
YRED11        4.620   1.000   P HH 
YRED11        4.770   1.000   S HH 
YRED16        6.470   1.000   P HH 
YRED16        8.170   1.000   S HH 
IVMMO1        8.510   1.000   S EH 
YRED17        5.100   1.000   P HH 
YRED21        6.000   1.000   P HH 
YRED21        9.650   1.000   S HH 
YRED20       11.310   1.000   S HH 
# 2016 10 18  0  8 10.24  42.7563   13.2870    7.89  0.00  0.42  1.09  0.20    100026 E
YRED23        1.820   1.000   P HH 
YRED23        3.570   1.000   S HH 
YRED16        0.940   1.000   P HH 
YRED16        2.110   1.000   S HH 
YRED20        2.630   1.000   P HH 
YRED20        4.940   1.000   S HH 
YRED09        2.660   1.000   P HH 
YRED09        4.950   1.000   S HH 
YRED24        2.820   1.000   P HH 
YRED24        5.440   1.000   S HH 
IVMMO1        2.790   1.000   S EH 
IVNRCA        3.120   1.000   P HH 
IVNRCA        5.850   1.000   S HH 
IVMC2         3.390   1.000   P EH 
YRED07        7.060   1.000   S HH 
YRED19        4.140   1.000   P HH 
YRED11        7.620   1.000   S HH 
YRED17        4.340   1.000   P HH 
YRED17        8.200   1.000   S HH 
# 2016 10 18  0  8 25.09  42.5900   13.3012    4.12  0.00  0.43  0.74  0.14    100027 E
YRED04        1.020   1.000   P HH 
YRED04        2.150   1.000   S HH 
YRED25        1.400   1.000   P HH 
YRED25        2.770   1.000   S HH 
IVT1299       1.440   1.000   P EH 
IVT1299       2.730   1.000   S EH 
IVSMA1        1.190   1.000   P EH 
IVSMA1        3.050   1.000   S EH 
YRED05        2.710   1.000   P HH 
YRED05        4.760   1.000   S HH 
YRED07        2.660   1.000   P HH 
YRED07        5.000   1.000   S HH 
YRED14        6.910   1.000   S HH 
YRED11        2.630   1.000   P HH 
IVTERO        8.090   1.000   S HH 
# 2016 10 18  0  8 31.90  42.5495   13.2442    3.94  0.00  0.21  0.57  0.09    100028 E
IVRM33        1.400   1.000   P EH 
IVRM33        2.740   1.000   S EH 
YRED04        1.420   1.000   P HH 
YRED04        2.870   1.000   S HH 
YRED03        1.740   1.000   P HH 
YRED03        3.180   1.000   S HH 
IVT1299       2.060   1.000   P EH 
IVT1299       3.940   1.000   S EH 
YRED25        2.110   1.000   P HH 
YRED25        4.190   1.000   S HH 
IVSMA1        2.420   1.000   P EH 
IVSMA1        4.590   1.000   S EH 
YRED05        2.320   1.000   P HH 
YRED05        4.530   1.000   S HH 
YRED24        2.500   1.000   P HH 
YRED24        4.590   1.000   S HH 
YRED01        2.390   1.000   P HH 
YRED01        4.780   1.000   S HH 
IVLNSS        3.210   1.000   P HH 
IVLNSS        6.250   1.000   S HH 
YRED14        3.490   1.000   P HH 
YRED14        6.740   1.000   S HH 
YRED07        3.430   1.000   P HH 
YRED07        6.720   1.000   S HH 
YRED09        3.660   1.000   P HH 
# 2016 10 18  0  8 42.18  42.7818   13.1988    6.97  0.00  0.69  1.75  0.25    100029 E
YRED23        2.220   1.000   P HH 
YRED23        4.260   1.000   S HH 
IVNRCA       -0.180   1.000   P HH 
IVNRCA        0.970   1.000   S HH 
YRED24        5.130   1.000   S HH 
IVMC2         4.940   1.000   S EH 
YRED19        3.250   1.000   P HH 
YRED19        5.900   1.000   S HH 
IVT1299       6.730   1.000   S EH 
YRED12        3.450   1.000   P HH 
YRED12        4.080   1.000   S HH 
YRED20        3.280   1.000   P HH 
YRED20        6.840   1.000   S HH 
YRED07        5.440   1.000   P HH 
YRED07        9.360   1.000   S HH 
# 2016 10 18  0  8 54.89  42.9205   13.2623    2.68  0.00  0.28  0.88  0.12    100030 E
IVMMO1        1.360   1.000   P EH 
IVMMO1        2.580   1.000   S EH 
IVMC2         1.380   1.000   P EH 
IVMC2         2.710   1.000   S EH 
YRED18        1.650   1.000   P HH 
YRED18        3.260   1.000   S HH 
YRED16        2.020   1.000   P HH 
YRED16        3.880   1.000   S HH 
YRED19        1.900   1.000   P HH 
YRED19        3.830   1.000   S HH 
YRED22        2.250   1.000   P HH 
YRED22        4.170   1.000   S HH 
YRED21        2.380   1.000   P HH 
YRED21        4.380   1.000   S HH 
YRED20        4.560   1.000   P HH 
YRED20        7.700   1.000   S HH 
# 2016 10 18  0  9 23.21  42.7430   13.1930    6.06  0.00  0.23  0.83  0.16    100031 E
YRED23        2.040   1.000   P HH 
YRED23        3.960   1.000   S HH 
YRED24        2.160   1.000   P HH 
YRED24        4.120   1.000   S HH 
IVNRCA        2.310   1.000   P HH 
IVNRCA        4.270   1.000   S HH 
YRED16        2.740   1.000   P HH 
YRED16        5.270   1.000   S HH 
IVT1299       3.200   1.000   P EH 
IVT1299       5.520   1.000   S EH 
YRED11        2.760   1.000   P HH 
YRED11        5.300   1.000   S HH 
YRED03        3.010   1.000   P HH 
YRED03        5.710   1.000   S HH 
IVSMA1        5.870   1.000   S EH 
IVMC2         2.610   1.000   P EH 
IVMC2         6.940   1.000   S EH 
YRED12        2.110   1.000   P HH 
YRED12        6.640   1.000   S HH 
YRED20        3.410   1.000   P HH 
YRED20        6.380   1.000   S HH 
YRED09        3.520   1.000   P HH 
YRED09        6.820   1.000   S HH 
IVLNSS        3.740   1.000   P HH 
IVLNSS        7.010   1.000   S HH 
IVMMO1        3.700   1.000   P EH 
IVMMO1        6.960   1.000   S EH 
YRED17        4.600   1.000   P HH 
YRED17        8.670   1.000   S HH 
YRED02        8.830   1.000   S HH 
YRED18        9.530   1.000   S HH 
YRED22        5.100   1.000   P HH 
YRED22       10.740   1.000   S HH 
YRED21        5.700   1.000   P HH 
YRED21       10.620   1.000   S HH 
IVTERO        6.450   1.000   P HH 
IVTERO       11.300   1.000   S HH 
